OBJECTID,LM_ID,LM_NAME,CATEGORY,LM_TYPE,SDA_CAT,STR_ADDR,UNIT,MUN,PR,POSTAL,PHONE,WEBSITE,Type,ExtDay,WARDNUM,ROPADRID,x,y
1,CC-OTH-233,123 TLC Preschool,Social Services,Child Care (Other),Child Care Centre,322 Queen St S,,Mississauga,ON,L5N 3E4,905-609-0881,https://peelchildcare.cioc.ca/record/CDR0554,Community-Based For-Profit Centre,No,11,93448,-8873465.682,5400660.93
2,CC-OTH-123,ABC Montessori II,Social Services,Child Care (Other),Child Care Centre,285 Matheson Blvd E,,Mississauga,ON,L4Z 1X8,905-568-1716,https://peelchildcare.cioc.ca/record/CDR0546,Community-Based For-Profit Centre,No,5,42542,-8867820.14,5407121.75
3,CC-OTH-154,Absolute Angels,Social Services,Child Care (Other),Child Care Centre,222 Salvation Rd,,Brampton,ON,L7A 0W9,905-970-0415,https://peelchildcare.cioc.ca/record/CDR0430,Community-Based For-Profit Centre,No,6,,-8886153.322,5416148.096
4,CC-OTH-280,Absolute Angels II Daycare,Social Services,Child Care (Other),Child Care Centre,10635 Creditview Rd,,Brampton,ON,L7A 0T4,905-970-9581,https://peelchildcare.cioc.ca/record/CDR1321,Community-Based For-Profit Centre,No,6,,-8887284.646,5417504.561
5,CC-PLP-207,Active Learning Centre (St. Thomas Aquinas) (PLASP),Social Services,Child Care (PLASP),Child Care Centre,25 Corporation Dr,,Brampton,ON,L6S 6A2,905-799-0685,https://peelchildcare.cioc.ca/record/CDR0397,School-Based Centre,No,8,,-8873366.868,5425138.294
6,CC-OTH-234,Advanced Care and Education Daycare,Social Services,Child Care (Other),Child Care Centre,5575 Bonnie St,,Mississauga,ON,L5M 0N8,905-270-4555,https://peelchildcare.cioc.ca/record/CDR0980,Community-Based Non-Profit Centre,No,10,294982,-8876031.469,5397517.153
7,CC-PLP-125,Agnes Taylor (PLASP),Social Services,Child Care (PLASP),Child Care Centre,80 Beech St,,Brampton,ON,L6V 1V6,905-890-1711,https://peelchildcare.cioc.ca/record/CDR0748,School-Based Centre,Yes,1,172865,-8878634.394,5418816.625
8,CC-OTH-207,Akal Child Care,Social Services,Child Care (Other),Child Care Centre,4535 Ebenezer Rd ,2,Brampton,ON,L6P 2P7,905-913-7333,https://peelchildcare.cioc.ca/record/CDR1632,Community-Based For-Profit Centre,No,8,283023,-8867885.156,5430396.686
9,CC-OTH-369,Alder Ridge Academy,Social Services,Child Care (Other),Child Care Centre,25 Kings Cross Rd,,Brampton,ON,L6T3V5,905-699-2060,https://peel.cioc.ca/record/CDR1804?Number=0,Community-Based For-Profit Centre,No,7,301000,-8874130.727,5422247.669
10,CC-PLP-009b,All Saints (PLASP),Social Services,Child Care (PLASP),Child Care Centre,4105 Colonial Dr,,Mississauga,ON,L5L 4E8,905-890-1711,https://peelchildcare.cioc.ca/record/CDR0647,School-Based Centre,Yes,8,240440,-8873337.412,5393271.036
11,CC-PLP-009a,All Saints Early Learning Centre (PLASP),Social Services,Child Care (PLASP),Child Care Centre,4105 Colonial Dr,,Mississauga,ON,L5L 4E8,905-890-1711,https://peelchildcare.cioc.ca/record/CDR0474,School-Based Centre,No,8,,-8873284.275,5393289.414
12,CC-YMC-076,Alloa (YMCA),Social Services,Child Care (YMCA),Child Care Centre,12287 Mississauga Rd,,Caledon,ON,L7C 1X1,905-843-2332,https://peelchildcare.cioc.ca/record/CDR1352,School-Based Centre,Yes,2,406066,-8891497.429,5419498.375
13,CC-PLP-173,Aloma Cr. (PLASP),Social Services,Child Care (PLASP),Child Care Centre,57 Aloma Cres,,Brampton,ON,L6T 2N8,905-890-1711,https://peelchildcare.cioc.ca/record/CDR1043,School-Based Centre,Yes,7,84476,-8872587.252,5420365.605
14,CC-OTH-199,Alpha Child Care I,Social Services,Child Care (Other),Child Care Centre,900 Peter Robertson Blvd ,10,Brampton,ON,L6R 1A2,905-458-4884,https://peelchildcare.cioc.ca/record/CDR0378,Community-Based For-Profit Centre,No,9,187302,-8877365.37,5426457.22
15,CC-OTH-153,Alpha Child Care II - Cathedral,Social Services,Child Care (Other),Child Care Centre,3 Cathedral Rd,,Brampton,ON,L6W 2P1,905-456-1811,https://peelchildcare.cioc.ca/record/CDR0404,Community-Based For-Profit Centre,No,3,390928,-8876943.013,5415886.404
16,CC-OTH-235,Alpha's Preschool Academy,Social Services,Child Care (Other),Child Care Centre,6435 Erin Mills Pky,,Mississauga,ON,L5T 2H9,905-812-8880,https://peelchildcare.cioc.ca/record/CDR0596,Community-Based For-Profit Centre,No,11,326419,-8876683.224,5401742.422
17,CC-YMC-082,Alton YMCA,Social Services,Child Care (YMCA),Child Care Centre,19681 Main St,,Caledon,ON,L7K 0E1,1-866-317-6251,https://peelchildcare.cioc.ca/record/CDR1717,School-Based Centre,Yes,1,402119,-8912804.711,5443522.535
18,CC-OTH-138,Angelic Treasures Christian Child Care,Social Services,Child Care (Other),Child Care Centre,6970 Vicar Gate,,Mississauga,ON,L5W 1G7,905-670-6614,https://peelchildcare.cioc.ca/record/CDR0548,Community-Based For-Profit Centre,No,11,212098,-8874301.877,5408916.319
19,CC-OTH-358,Angelic Treasures Christian Daycare,Social Services,Child Care (Other),Child Care Centre,2626 Mayfield Rd,,Caledon,ON,L7C 3K7,905-495-1417,https://peel.cioc.ca/record/CDR1758?Number=0 ,Community-Based For-Profit Centre,No,2,74995,-8887024.484,5423364.48
20,CC-OTH-281,Appleseed Academy of Early Learning,Social Services,Child Care (Other),Child Care Centre,2067 Stanfield Rd,,Mississauga,ON,L6X 1J3,905-459-9219,https://peelchildcare.cioc.ca/record/CDR1139,Community-Based For-Profit Centre,No,1,117004,-8858362.25,5402790.314
21,CC-OTH-292,Applewood Montessori Academy & Daycare (Applewood),Social Services,Child Care (Other),Child Care Centre,333 Fairhill Ave,6-Jan,Brampton,ON,L7A 3N9,416-951-4688,https://peelchildcare.cioc.ca/record/CDR0036,Community-Based For-Profit Centre,No,6,244754,-8885290.696,5417979.308
22,CC-OTH-367,Applewood Montessori Academy & Daycare (Downtown),Social Services,Child Care (Other),Child Care Centre,98A Queen St W,,Brampton,ON,L6X1A4,905-453-2022,https://peel.cioc.ca/record/CDR1797?Number=1,Community-Based For-Profit Centre,No,1,389923,-8879081.864,5416694.621
23,CC-OTH-016,Applewood Rainbow Montessori School,Social Services,Child Care (Other),Child Care Centre,24 Stavebank Rd,,Mississauga,ON,L5G 2T5,905-274-2321,https://peelchildcare.cioc.ca/record/CDR0576,Community-Based For-Profit Centre,No,1,,-8859601.757,5396498.851
24,CC-PLP-133,Arnott Charlton (PLASP),Social Services,Child Care (PLASP),Child Care Centre,140 Winterfold Dr,,Brampton,ON,L6V 1V6,905-890-1711,https://peelchildcare.cioc.ca/record/CDR0751,School-Based Centre,Yes,1,253608,-8879688.916,5421450.809
25,CC-PLP-016,Artesian Drive (PLASP),Social Services,Child Care (PLASP),Child Care Centre,3325 Artesian Dr,,Mississauga,ON,L5M 7J8,905-890-1711,https://peelchildcare.cioc.ca/record/CDR0717,School-Based Centre,Yes,8,282747,-8874296.447,5395000.8
26,CC-PLP-237,Aylesbury (PLASP),Social Services,Child Care (PLASP),Child Care Centre,25 Aylesbury Dr,,Brampton,ON,L7A 0V3,905-890-1711,https://peelchildcare.cioc.ca/record/CDR1396,School-Based Centre,Yes,6,,-8886809.934,5415770.541
27,CC-FDC-021,Barondale (Family Day Care),Social Services,Child Care (Family Day),Child Care Centre,200 Barondale Dr,,Mississauga,ON,L5T 2J8,416-922-3434,https://peelchildcare.cioc.ca/record/CDR0858,School-Based Centre,Yes,5,301179,-8867772.843,5406618.274
28,CC-YMC-058,Belfountain (YMCA),Social Services,Child Care (YMCA),Child Care Centre,17247 Shaws Creek Rd,,Caledon,ON,L6P 3A5,647-367-9321,https://peelchildcare.cioc.ca/record/CDR1287,School-Based Centre,Yes,1,326398,-8907594.743,5432745.578
29,CC-FDC-011,Beryl Ford (Family Day Care),Social Services,Child Care (Family Day),Child Care Centre,45 Ironshield Dr,,Brampton,ON,L6P 3N5,416-922-3434,https://peelchildcare.cioc.ca/record/CDR1038,School-Based Centre,Yes,10,260825,-8868767.679,5433106.72
30,CC-PLP-128,Birchbank (PLASP),Social Services,Child Care (PLASP),Child Care Centre,52 Birchbank Rd,,Brampton,ON,L6T 1L7,905-890-1711,https://peelchildcare.cioc.ca/record/CDR1049,School-Based Centre,Yes,7,75029,-8872799.608,5419618.927
31,CC-PLP-111,Bishop Francis Allen (PLASP),Social Services,Child Care (PLASP),Child Care Centre,325 McMurchy Ave S,,Brampton,ON,L6Y 1Z4,905-890-1711,https://peelchildcare.cioc.ca/record/CDR0753,School-Based Centre,Yes,3,282705,-8877332.29,5413961.894
32,CC-PLP-063,Bishop Scalabrini (PLASP),Social Services,Child Care (PLASP),Child Care Centre,225 Central Pky W,,Mississauga,ON,L5B 3J5,905-890-1711,https://peelchildcare.cioc.ca/record/CDR0680,School-Based Centre,Yes,7,221571,-8864983.299,5401398.67
33,CC-OTH-237,Bizzy Buddies Learning and Childcare,Social Services,Child Care (Other),Child Care Centre,12612 Highway 50 ,13A,Caledon,ON,L7E 1T6,905-857-7648,https://peelchildcare.cioc.ca/record/CDR0976,Community-Based For-Profit Centre,No,5,392161,-8873551.998,5443738.011
34,CC-PLP-205,Blessed Michael J. McGivney (PLASP),Social Services,Child Care (PLASP),Child Care Centre,450 Fernforest Dr,,Brampton,ON,L6R 2P7,905-890-1711,https://peelchildcare.cioc.ca/record/CDR0786,School-Based Centre,Yes,9,86592,-8879757.872,5427254.196
35,CC-OTH-040,Blue Elephant Daycare,Social Services,Child Care (Other),Child Care Centre,1322 Hurontario St,,Mississauga,ON,L5G 3H3,905-891-1279,https://peelchildcare.cioc.ca/record/CDR0577,Community-Based For-Profit Centre,No,1,140228,-8860005.322,5397800.66
36,CC-YMC-026,Bolton YMCA Child Care,Social Services,Child Care (YMCA),Child Care Centre,12295 Highway 50,Box 812,Caledon,ON,L7E 5T5,905-857-3531 ext 300,https://peelchildcare.cioc.ca/record/CAL0951,Community-Based Non-Profit Centre,No,5,391971,-8872426.564,5442954.17
37,CC-OTH-293,Boni Montessori School,Social Services,Child Care (Other),Child Care Centre,9886 Torbram Rd,201A,Brampton,ON,L6S 3L9,905-790-2664,https://peelchildcare.cioc.ca/record/CDR1356,Community-Based For-Profit Centre,No,8,288806,-8875236.806,5426691.829
38,CC-YMC-017,Brampton YMCA,Social Services,Child Care (YMCA),Child Care Centre,20 Union St,,Brampton,ON,L6V 1R2,905-451-1400 ext 440,https://peelchildcare.cioc.ca/record/CDR0421,Community-Based Non-Profit Centre,No,1,,-8878738.934,5417375.308
39,CC-PLP-175,Brandon Gate (PLASP),Social Services,Child Care (PLASP),Child Care Centre,3800 Brandon Gate Dr,,Mississauga,ON,L4T 3V9,905-890-1711,https://peelchildcare.cioc.ca/record/CDR1045,School-Based Centre,Yes,5,239694,-8865629.736,5424145.534
40,CC-PLP-096b,Brian W. Fleming (PLASP),Social Services,Child Care (PLASP),Child Care Centre,3255 Havenwood Dr,,Mississauga,ON,L4X 2M2,905-890-1711,https://peelchildcare.cioc.ca/record/CDR0689,School-Based Centre,Yes,3,22672,-8859589.833,5406540.193
41,CC-PLP-096a,Brian W. Fleming Early Learning Centre (PLASP),Social Services,Child Care (PLASP),Child Care Centre,3255 Havenwood Dr,,Mississauga,ON,L4X 2M2,905-890-1711,https://peelchildcare.cioc.ca/record/CDR0516,School-Based Centre,No,3,,-8859604.597,5406584.404
42,CC-PLP-082,Briarwood (PLASP),Social Services,Child Care (PLASP),Child Care Centre,1065 Mississauga Valley Blvd,,Mississauga,ON,L5A 2A1,905-890-1711,https://peelchildcare.cioc.ca/record/CDR0681,School-Based Centre,Yes,4,222727,-8863218.606,5404068.244
43,CC-OTH-086,Bright Scholars Academy Inc. - Falconer,Social Services,Child Care (Other),Child Care Centre,24 Falconer Dr,,Mississauga,ON,L5N 1B1,905-826-3595,https://peelchildcare.cioc.ca/record/CDR0551,Community-Based For-Profit Centre,No,11,105102,-8875152.317,5403014.761
44,CC-OTH-071,Bright Scholars Academy Inc. - Kirwin,Social Services,Child Care (Other),Child Care Centre,3180 Kirwin Ave,,Mississauga,ON,L5A 2K7,905-896-4553,https://peelchildcare.cioc.ca/record/CDR1019,Community-Based For-Profit Centre,No,7,,-8863059.876,5401464.2
45,CC-OTH-059,Bright Scholars Montessori - Montevideo,Social Services,Child Care (Other),Child Care Centre,5920 Montevideo Rd,,Mississauga,ON,L5N 3J5,905-542-1895,https://peelchildcare.cioc.ca/record/CDR0390,Community-Based For-Profit Centre,No,9,,-8877577.345,5400817.889
46,CC-OTH-357,Bright Scholars Montessori Caledon,Social Services,Child Care (Other),Child Care Centre,225 Dougall Ave,,Caledon,ON,L7C 2H1,905-849-0762,https://peel.cioc.ca/record/CDR1758,Community-Based For-Profit Centre,No,2,477652,-8886226.074,5427877.459
47,CC-OTH-265,BrightPath - Avondale,Social Services,Child Care (Other),Child Care Centre,55 Avondale Blvd,,Brampton,ON,L6W 2C4,905-799-2212,https://peelchildcare.cioc.ca/record/CDR0391,Community-Based For-Profit Centre,No,7,281244,-8872100.096,5420114.116
48,CC-OTH-295,BrightPath - Bolton,Social Services,Child Care (Other),Child Care Centre,14 McEwan Dr W,1,Caledon,ON,L7E 1H1,905-857-4634,https://peelchildcare.cioc.ca/record/CAL0099,Community-Based For-Profit Centre,No,5,392144,-8873972.638,5443840.932
49,CC-OTH-314,BrightPath - Charolais,Social Services,Child Care (Other),Child Care Centre,305 Charolais Blvd,,Brampton,ON,L6Y 2R2,905-452-5437,https://peelchildcare.cioc.ca/record/CDR1405,Community-Based For-Profit Centre,No,4,253772,-8877654.412,5412834.74
50,CC-OTH-139,BrightPath - Dixie,Social Services,Child Care (Other),Child Care Centre,4560 Dixie Rd,,Mississauga,ON,L4W 1N2,905-629-8849,https://peelchildcare.cioc.ca/record/CDR0413,Community-Based For-Profit Centre,No,3,274117,-8863018.629,5408821.807
51,CC-OTH-125,BrightPath - Matheson East,Social Services,Child Care (Other),Child Care Centre,309 Matheson Blvd E,,Mississauga,ON,L5C 3N6,905-507-9796,https://peelchildcare.cioc.ca/record/CDR0509,Community-Based For-Profit Centre,No,5,142821,-8867642.47,5407181.368
52,CC-OTH-121,BrightPath - Matheson West,Social Services,Child Care (Other),Child Care Centre,155 Matheson Blvd W,C,Mississauga,ON,L5R 3L5,905-568-4770,https://peelchildcare.cioc.ca/record/CDR0504,Community-Based For-Profit Centre,No,5,3970,-8869202.362,5406258.602
53,CC-OTH-266,BrightPath - Mill St.,Social Services,Child Care (Other),Child Care Centre,224 Mill St S,,Brampton,ON,L6Y 1T8,905-456-1798,https://peelchildcare.cioc.ca/record/CDR0410,Community-Based For-Profit Centre,No,3,52547,-8877344.566,5415125.033
54,CC-OTH-118,BrightPath - Milverton,Social Services,Child Care (Other),Child Care Centre,100 Milverton Dr,,Mississauga,ON,L5R 4H1,905-568-1371,https://peelchildcare.cioc.ca/record/CDR0543,Community-Based For-Profit Centre,No,5,105036,-8869279.447,5406551.581
55,CC-OTH-150,BrightPath - Queen,Social Services,Child Care (Other),Child Care Centre,685 Queen St W,,Brampton,ON,L6V 1A1,905-456-2273,https://peelchildcare.cioc.ca/record/CDR0429,Community-Based For-Profit Centre,No,4,167178,-8880578.848,5414627.588
56,CC-OTH-192,BrightPath - Sandalwood,Social Services,Child Care (Other),Child Care Centre,170 Sandalwood Pky E,11,Brampton,ON,L6Z 1Y5,905-846-4656,https://peelchildcare.cioc.ca/record/CDR0423,Community-Based For-Profit Centre,No,2,293972,-8883104.382,5423254.938
57,CC-OTH-091,BrightPath - Torquay Mews,Social Services,Child Care (Other),Child Care Centre,2172 Torquay Mews,,Mississauga,ON,L5N 2M6,905-542-2835,https://peelchildcare.cioc.ca/record/CDR0595,Community-Based For-Profit Centre,No,9,97409,-8876899.14,5403033.454
58,CC-OTH-134,BrightPath - Traders,Social Services,Child Care (Other),Child Care Centre,220 Traders Blvd E,,Mississauga,ON,L4Z 1W7,905-712-2273,https://peelchildcare.cioc.ca/record/CDR0549,Community-Based For-Profit Centre,No,5,14935,-8868737.915,5407905.257
59,CC-OTH-043,BrightPath - Wolfedale,Social Services,Child Care (Other),Child Care Centre,3221 Wolfedale Rd,,Mississauga,ON,L5C 1V8,905-615-9991,https://peelchildcare.cioc.ca/record/CDR0468,Community-Based For-Profit Centre,No,6,96904,-8865674.856,5398799.913
60,CC-OTH-200,BrightPath Professor's Lake Campus,Social Services,Child Care (Other),Child Care Centre,2 Philosopher's Trail,10,Brampton,ON,L6S 5L7,905-792-7593,https://peelchildcare.cioc.ca/record/CDR0388,Community-Based For-Profit Centre,No,8,315913,-8876417.464,5426811.435
61,CC-OTH-166,BrightPath Queen Campus,Social Services,Child Care (Other),Child Care Centre,255 Queen St E,5,Brampton,ON,L6W 2B8,905-799-0782,https://peelchildcare.cioc.ca/record/CDR0399,Community-Based For-Profit Centre,No,3,281926,-8876983.891,5419023.394
62,CC-OTH-197,BrightPath Van Kirk Campus,Social Services,Child Care (Other),Child Care Centre,35 Van Kirk Dr ,19,Brampton,ON,L7A 1A5,905-456-7339,https://peelchildcare.cioc.ca/record/CDR0854,Community-Based For-Profit Centre,No,2,299628,-8882975.094,5419308.884
63,CC-OTH-239,Brilliant Minds Montessori - Bristol,Social Services,Child Care (Other),Child Care Centre,310 Bristol Rd E,,Mississauga,ON,L5V 2C8,905-501-0436,https://peelchildcare.cioc.ca/record/CDR0540,Community-Based For-Profit Centre,No,5,275293,-8866964.409,5406297.729
64,CC-OTH-097,Brilliant Minds Montessori - Mississauga Valley,Social Services,Child Care (Other),Child Care Centre,1275 Mississauga Valley Blvd,,Mississauga,ON,L5A 3R8,905-275-4144,https://peelchildcare.cioc.ca/record/CDR0511,Community-Based For-Profit Centre,No,4,,-8863730.245,5403288.097
65,CC-PLP-124,Brisdale (PLASP),Social Services,Child Care (PLASP),Child Care Centre,370 Brisdale Dr,,Brampton,ON,L7A 3K9,905-890-1711,https://peelchildcare.cioc.ca/record/CDR0779,School-Based Centre,No,6,249522,-8887407.492,5418885.959
66,CC-PLP-084,Britannia (PLASP),Social Services,Child Care (PLASP),Child Care Centre,1145 Swinbourne Dr,,Mississauga,ON,L5V 1C2,905-890-1711,https://peelchildcare.cioc.ca/record/CDR0701,School-Based Centre,Yes,11,293953,-8872970.94,5404737.738
67,CC-PLP-232,Brookmede (PLASP),Social Services,Child Care (PLASP),Child Care Centre,2250 Council Ring Rd,,Mississauga,ON,L5L 1B7,905-890-1711,https://peelchildcare.cioc.ca/record/CDR0648,School-Based Centre,Yes,8,28184,-8869445.747,5394130.716
68,CC-OTH-322,Buds and Blossoms (Caledon),Social Services,Child Care (Other),Child Care Centre,2976 Charleston Sideroad,,Caledon,ON,L7K 0V8,519-942-2661,https://peelchildcare.cioc.ca/record/CDR1444,Community-Based For-Profit Centre,No,1,199749,-8905195.312,5443777.322
69,CC-OTH-189,Building Blocks Nursery School,Social Services,Child Care (Other),Child Care Centre,85 Sandalwood Pky E,,Brampton,ON,L6Z 4S3,905-846-3305,https://peelchildcare.cioc.ca/record/CDR0403,Community-Based For-Profit Centre,No,2,193281,-8883035.594,5422468.749
70,CC-PLP-094,Burnhamthorpe (PLASP),Social Services,Child Care (PLASP),Child Care Centre,3465 Golden Orchard Dr,,Mississauga,ON,L4Y 3H7,905-890-1711,https://peelchildcare.cioc.ca/record/CDR0682,School-Based Centre,Yes,3,23291,-8860818.477,5406290.414
71,CC-PLP-138,Burnt Elm (PLASP),Social Services,Child Care (PLASP),Child Care Centre,85 Burnt Elm Dr,,Brampton,ON,L7A 1T8,905-890-1711,https://peelchildcare.cioc.ca/record/CDR0769,School-Based Centre,Yes,2,261637,-8885334.712,5421980.076
72,CC-OTH-183,Busy Bees Nursery School,Social Services,Child Care (Other),Child Care Centre,168 Kennedy Rd S,,Brampton,ON,L6W 3G6,905-454-7676,https://peelchildcare.cioc.ca/record/CDR0402,Community-Based For-Profit Centre,No,3,271052,-8875344.131,5416314.551
73,CC-OTH-350,Busy Hands 'N' Minds Childcare Centre Brampton,Social Services,Child Care (Other),Child Care Centre,8255 Financial Dr,,Brampton,ON,L6Y 0C1,905-569-2999,https://peelchildcare.cioc.ca/record/CDR1715,Community-Based For-Profit Centre,No,6,475853,-8882068.402,5409043.05
74,CC-OTH-241,Busy Hands 'n' Minds Childcare,Social Services,Child Care (Other),Child Care Centre,4615 Glen Erin Dr,,Mississauga,ON,L5M 4E8,905-569-2999,https://peelchildcare.cioc.ca/record/CDR0553,Community-Based For-Profit Centre,No,8,276408,-8873278.652,5396634.452
75,CC-YMC-056,Caledon Central (YMCA),Social Services,Child Care (YMCA),Child Care Centre,18357 Kennedy Rd,,Caledon,ON,L7K 1Y7,519-938-5566,https://peelchildcare.cioc.ca/record/CDR1091?Number=3,School-Based Centre,Yes,1,294896,-8903664.49,5445428.126
76,CC-YMC-059,Caledon East (YMCA),Social Services,Child Care (YMCA),Child Care Centre,15738 Airport Rd,,Caledon,ON,L6X 0E1,905-890-1711,https://peelchildcare.cioc.ca/record/CDR1289,School-Based Centre,Yes,3,84576,-8890155.092,5444305.65
77,CC-OTH-223,Caledon East Children's Place,Social Services,Child Care (Other),Child Care Centre,6029 Old Church Rd,,Caledon,ON,L7C 1H8,905-584-9189,https://peelchildcare.cioc.ca/record/CAL0321,Community-Based Non-Profit Centre,No,3,,-8890628.376,5445405.299
78,CC-OTH-224,Caledon Hills Montessori,Social Services,Child Care (Other),Child Care Centre,6046 Old Church Rd,,Caledon,ON,L0N 1E0,905-584-5114,https://peelchildcare.cioc.ca/record/CAL0122,Community-Based For-Profit Centre,No,3,85595,-8890662.801,5445561.788
79,CC-PLP-078,Canadian Martyrs (PLASP),Social Services,Child Care (PLASP),Child Care Centre,1185 Mississauga Valley Blvd,,Mississauga,ON,L5A 3R7,905-890-1711,https://peelchildcare.cioc.ca/record/CDR0683,School-Based Centre,Yes,4,249672,-8863552.357,5403637.055
80,CC-PLP-176,Carberry (PLASP),Social Services,Child Care (PLASP),Child Care Centre,526 Fernforest Dr,,Brampton,ON,L6R 0W1,905-890-1711,https://peelchildcare.cioc.ca/record/CDR0792,School-Based Centre,Yes,9,320758,-8880489.122,5427820.91
81,CC-OTH-354,Caring for Kids - Dundas St,Social Services,Child Care (Other),Child Care Centre,130 Dundas St E,101,Mississauga,ON,L5A 3V8,905-896-8125,https://peelchildcare.cioc.ca/record/CDR1733,Community-Based Non-Profit Centre,No,7,126334,-8862413.452,5401125.493
82,CC-OTH-047,Caring for Kids - The Centre,Social Services,Child Care (Other),Child Care Centre,1110 Caven St ,105,Mississauga,ON,L5G 4N4,905-274-4362,https://peelchildcare.cioc.ca/record/CDR0578,Community-Based Non-Profit Centre,No,1,133337,-8857778.017,5399103
83,CC-OTH-377,Casa Dee Montessori School,Social Services,Child Care (Other),Child Care Centre,12612 Hwy 50,13A,Caledon,ON,L7E1T6,905-955-2333,,Community-Based For-Profit Centre,No,5,392162,-8873540.481,5443757.657
84,CC-OTH-365,Casa Dee Montessori School,Social Services,Child Care (Other),Child Care Centre,625 Remembrance Rd,D103,Brampton,ON,L7A4P2,905-955-2333,https://peel.cioc.ca/record/CDR1795 ,Community-Based For-Profit Centre,No,6,482956,-8886489.665,5421684.682
85,CC-PLP-037,Cashmere (PLASP),Social Services,Child Care (PLASP),Child Care Centre,2455 Cashmere Ave,,Mississauga,ON,L5B 2M7,905-890-1711,https://peelchildcare.cioc.ca/record/CDR0684,School-Based Centre,Yes,7,232453,-8863927.61,5398358.554
86,CC-OTH-305,Castle Oaks (Caring for Kids),Social Services,Child Care (Other),Child Care Centre,155 Castle Oaks Cross,,Brampton,ON,L6P 3V4,905-457-3370 ext 2,https://peelchildcare.cioc.ca/record/CDR1401,School-Based Centre,Yes,10,,-8868956.621,5433707.436
87,CC-YMC-009,Castlebridge (YMCA),Social Services,Child Care (YMCA),Child Care Centre,2801 Castlebridge Dr,,Mississauga,ON,L5M 5J9,416-670-1800,https://peelchildcare.cioc.ca/record/CDR0852,School-Based Centre,Yes,9,308788,-8875823.036,5398830.662
88,CC-PLP-233,Castlemore (PLASP),Social Services,Child Care (PLASP),Child Care Centre,9916 The Gore Rd,,Brampton,ON,L6P 0A7,905-913-0845,https://peelchildcare.cioc.ca/record/CDR1358?Number=216,School-Based Centre,Yes,8,184301,-8870846.953,5432929.066
89,CC-OTH-379,Castlemore Montessori,Social Services,Child Care (Other),Child Care Centre,6455 Mayfield Rd,,Brampton,ON,L6P0H9,647-367-1663,,Community-Based For-Profit Centre,,10,492284,-8877674.135,5434448.801
90,CC-YMC-070,Central Park (YMCA),Social Services,Child Care (YMCA),Child Care Centre,1100 Central Park Dr,,Brampton,ON,L6S 2C9,905-793-5970,https://peelchildcare.cioc.ca/record/CDR0382,Community-Based Non-Profit Centre,No,8,167829,-8874081.274,5424671.045
91,CC-PLP-017,Centre Educatif Eveil aux Savoirs (Saint Jean Baptiste),Social Services,Child Care (French),Child Care Centre,1910 Broad Hollow Gate,,Mississauga,ON,L5L 3T4,905-569-8161,https://peelchildcare.cioc.ca/record/CDR0325,School-Based Centre,Yes,8,,-8868502.04,5394943.352
92,CC-YMC-014,Champlain Trail (YMCA),Social Services,Child Care (YMCA),Child Care Centre,895 Ceremonial Dr,,Mississauga,ON,L5R 3B5,905-507-1058,https://peelchildcare.cioc.ca/record/CDR0498,School-Based Centre,Yes,5,,-8869747.816,5404317.733
93,CC-FDC-007,Cherrytree (Family Day Care),Social Services,Child Care (Family Day),Child Care Centre,155 Cherrytree Dr,,Brampton,ON,L6Y 3M9,416-922-3434,https://peelchildcare.cioc.ca/record/CDR0458,School-Based Centre,Yes,4,57223,-8874921.943,5412065.149
94,CC-OTH-323,Cherubs Cove Montessori Child Care Inc. Downtown Brampton Campus,Social Services,Child Care (Other),Child Care Centre,104 Queen St W,,Brampton,ON,L6X1A4,905-451-0575,https://peelchildcare.cioc.ca/record/CDR1449,Community-Based For-Profit Centre,No,1,444687,-8879115.85,5416658.077
95,CC-OTH-201,Children's Choice Day Care Inc.,Social Services,Child Care (Other),Child Care Centre,2021 Williams Pky E,5 6,Brampton,ON,L6S 5P4,905-789-1716,https://peelchildcare.cioc.ca/record/CDR0392,Community-Based For-Profit Centre,No,8,310714,-8872593.443,5427896.913
96,CC-OTH-242,Children's Circle Montessori School,Social Services,Child Care (Other),Child Care Centre,35 Brisdale Dr,,Brampton,ON,L7A 0S9,905-609-6900,https://peelchildcare.cioc.ca/record/CDR0972,Community-Based For-Profit Centre,No,6,257534,-8884693.374,5416778.809
97,CC-OTH-004,Children's Palace Montessori and Pre-school,Social Services,Child Care (Other),Child Care Centre,820 Southdown Rd,,Mississauga,ON,L5J 2Y4,905-823-3317,https://peelchildcare.cioc.ca/record/CDR0572,Community-Based For-Profit Centre,No,2,49511,-8863912.416,5389534.177
98,CC-OTH-238,Childventures Meadowvale Early Learning Academy Inc.,Social Services,Child Care (Other),Child Care Centre,7030 Royal Bank Dr,,Mississauga,ON,L5N 0B6,905-816-1515,https://peelchildcare.cioc.ca/record/CDR0552,Community-Based For-Profit Centre,No,11,,-8877647.389,5405101.976
99,CC-YMC-074,Chris Hadfield (YMCA),Social Services,Child Care (YMCA),Child Care Centre,465 Fairview Rd,,Mississauga,ON,L5B 3W7,905-276-9322 ext 202,https://peelchildcare.cioc.ca/record/CDR1357,School-Based Centre,Yes,7,396714,-8864949.129,5400260.403
100,CC-PLP-005b,Christ the King (PLASP),Social Services,Child Care (PLASP),Child Care Centre,3240 Garthwood Rd,,Mississauga,ON,L5L 5A3,905-890-1711,https://peelchildcare.cioc.ca/record/CDR0475,School-Based Centre,Yes,8,,-8871627.423,5392086.874
101,CC-PLP-005a,Christ the King Early Learning Centre (PLASP),Social Services,Child Care (PLASP),Child Care Centre,3240 Garthwood Rd,,Mississauga,ON,L5L 5A3,905-890-1711,https://peelchildcare.cioc.ca/record/CDR0928,School-Based Centre,No,8,272768,-8871668.414,5392087.519
102,CC-YMC-006,Churchill Meadows (YMCA),Social Services,Child Care (YMCA),Child Care Centre,3310 McDowell Dr,,Mississauga,ON,L6R 6R8,416-300-7744,https://peelchildcare.cioc.ca/record/CDR0861,School-Based Centre,Yes,10,287575,-8877458.261,5397506.478
103,CC-YMC-079,Churchville (YMCA),Social Services,Child Care (YMCA),Child Care Centre,90 Bonnie Braes Dr,,Brampton,ON,L6Y 0Y3,905-943-9622,https://peelchildcare.cioc.ca/record/CDR1398,School-Based Centre,Yes,4,329223,-8881126.094,5412375.25
104,CC-OTH-096,Circle of Children Academy,Social Services,Child Care (Other),Child Care Centre,2850 Argentia Rd ,9,Mississauga,ON,L5N 8G4,905-826-4184,https://peelchildcare.cioc.ca/record/CDR0581,Community-Based For-Profit Centre,No,9,,-8880535.268,5403540.602
105,CC-PLP-208,Claireville (PLASP),Social Services,Child Care (PLASP),Child Care Centre,97 Gallucci Cres,,Brampton,ON,L6P 1R6,905-890-1711,https://peelchildcare.cioc.ca/record/CDR0788,School-Based Centre,Yes,8,304568,-8868927.964,5430143.531
106,CC-PLP-135,Clark Blvd. (PLASP),Social Services,Child Care (PLASP),Child Care Centre,201 Clark Blvd,,Brampton,ON,L6T 2C9,905-890-1711,https://peelchildcare.cioc.ca/record/CDR0784,School-Based Centre,Yes,7,190080,-8874201.234,5421404.711
107,CC-PLP-239,Clarkson (PLASP),Social Services,Child Care (PLASP),Child Care Centre,888 Clarkson Rd S,,Mississauga,ON,L5J 2B9,905-890-1711,https://peelchildcare.cioc.ca/record/CDR0661,School-Based Centre,Yes,2,44821,-8863387.841,5390551.571
108,CC-OTH-286,Clarkson Angels Child Care and Educational Centre (North),Social Services,Child Care (Other),Child Care Centre,1603 Clarkson Rd,1 2 3,Mississauga,ON,L5J 2X1,905-823-1603,https://peelchildcare.cioc.ca/record/CDR1299,Community-Based For-Profit Centre,No,2,39920,-8865370.911,5392862.365
109,CC-OTH-243,Clarkson Angels Child Care and Educational Centre (South),Social Services,Child Care (Other),Child Care Centre,1146 Clarkson Rd N,,Mississauga,ON,L5J 2W1,905-855-1146,https://peelchildcare.cioc.ca/record/CDR0887,Community-Based For-Profit Centre,No,2,,-8864134.761,5391404.673
110,CC-OTH-017,Clarkson Co-operative Nursery School,Social Services,Child Care (Other),Child Care Centre,1700 Mazo Cres,,Mississauga,ON,L5J 1Y9,905-855-2106,https://peelchildcare.cioc.ca/record/CDR0569,Community-Based Non-Profit Centre,No,2,139678,-8864674.302,5392402.631
111,CC-PLP-177,Clifton (PLASP),Social Services,Child Care (PLASP),Child Care Centre,2389 Cliff Rd,,Mississauga,ON,L5A 2P1,905-890-1711,https://peelchildcare.cioc.ca/record/CDR0991,School-Based Centre,Yes,7,118130,-8861167.38,5401290.222
112,CC-OTH-329,Closer II Home Programs,Social Services,Child Care (Other),Child Care Centre,10 Squire Ellis Dr,,Brampton,ON,L6P 4K6,905-794-9173,https://peelchildcare.cioc.ca/record/CDR1471,Community-Based For-Profit Centre,No,10,419925,-8874698.264,5436921.029
113,CC-OTH-212,Closer to Home Child Care,Social Services,Child Care (Other),Child Care Centre,3955 Cottrelle Blvd ,5 6 7,Brampton,ON,L6P 2P9,905-913-0144,https://peelchildcare.cioc.ca/record/CDR0396,Community-Based For-Profit Centre,No,10,262032,-8867685.982,5432059.306
114,CC-FDC-029,Collegeside Early Learning Centre (Family Day Care),Social Services,Child Care (Family Day),Child Care Centre,7899 McLaughlin Rd ,,Brampton,ON,L6V 1G6,905-450-1996,https://peelchildcare.cioc.ca/record/CDR0428,Community-Based Non-Profit Centre,No,4,271146,-8876496.027,5412411.242
115,CC-OTH-315,Colors at Danton,Social Services,Child Care (Other),Child Care Centre,7025 Danton Prom,7,Mississauga,ON,L5N 5N4,905-824-7922,https://peelchildcare.cioc.ca/record/CDR1416,Community-Based For-Profit Centre,No,9,,-8880321.028,5401714.6
116,CC-PLP-134,Conestoga (PLASP),Social Services,Child Care (PLASP),Child Care Centre,300 Conestoga Dr,,Brampton,ON,L6Z 3M1,905-890-1711,https://peelchildcare.cioc.ca/record/CDR0755,School-Based Centre,Yes,2,185767,-8881773.338,5421475.804
117,CC-PLP-087,Cooksville Creek (PLASP),Social Services,Child Care (PLASP),Child Care Centre,5100 Salishan Cir,,Mississauga,ON,L5R 3E3,905-890-1711,https://peelchildcare.cioc.ca/record/CDR0713,School-Based Centre,Yes,5,296969,-8867610.887,5404818.349
118,CC-PLP-178,Copeland (PLASP),Social Services,Child Care (PLASP),Child Care Centre,5 Young Dr,,Brampton,ON,L6Y 0P4,905-890-1711,https://peelchildcare.cioc.ca/record/CDR0789,School-Based Centre,Yes,4,250527,-8879154.614,5411490.059
119,CC-PLP-179,Corliss (PLASP),Social Services,Child Care (PLASP),Child Care Centre,3730 Corliss Cres,,Mississauga,ON,L4T 2Z4,905-890-1711,https://peelchildcare.cioc.ca/record/CDR1041,School-Based Centre,No,5,62527,-8865043.574,5423368.689
120,CC-YMC-060,Corpus Christi (YMCA),Social Services,Child Care (YMCA),Child Care Centre,4155 Elora Dr,,Mississauga,ON,L6X 0E1,905-890-1711,https://peelchildcare.cioc.ca/record/CDR1353,School-Based Centre,Yes,4,230553,-8866872.413,5401451.508
121,CC-PLP-053,Corsair (PLASP),Social Services,Child Care (PLASP),Child Care Centre,2230 Corsair Rd,,Mississauga,ON,L5A 2L9,905-890-1711,https://peelchildcare.cioc.ca/record/CDR0685,School-Based Centre,No,7,259398,-8860981.595,5400406.827
122,CC-OTH-219,Countryside Montessori and Private School,Social Services,Child Care (Other),Child Care Centre,1 Loring Dr,,Caledon,ON,L7E 1Y1,905-951-3359,https://peelchildcare.cioc.ca/record/CAL0058,Community-Based For-Profit Centre,No,5,287039,-8873801.855,5443811.872
123,CC-OTH-306,Countryside Village (PEAL Centres),Social Services,Child Care (Other),Child Care Centre,40 Dolbyhill Dr,,Brampton,ON,L6R 3V8,905-796-4467,https://peelchildcare.cioc.ca/record/CDR1403,School-Based Centre,Yes,9,423161,-8881336.11,5428191.399
124,CC-OTH-244,Creative Children's Montessori School,Social Services,Child Care (Other),Child Care Centre,16 Parr Blvd,,Caledon,ON,L7E 4H1,905-951-8606,https://peelchildcare.cioc.ca/record/CAL0268,Community-Based For-Profit Centre,No,5,293753,-8872624.879,5442706.064
125,CC-YMC-005,Credit Valley (YMCA),Social Services,Child Care (YMCA),Child Care Centre,2365 Credit Valley Rd,,Mississauga,ON,L5M 4G8,905-828-9295,https://peelchildcare.cioc.ca/record/CDR0499,School-Based Centre,Yes,8,294541,-8872921.799,5396754.173
126,CC-YMC-027,Derry West Village (YMCA),Social Services,Child Care (YMCA),Child Care Centre,620 Twain Ave,,Mississauga,ON,L5W 1M1,1-647-273-3514,https://peelchildcare.cioc.ca/record/CDR1090,School-Based Centre,Yes,11,304035,-8874737.157,5409982.292
127,CC-YMC-010,Derry Woods YMCA,Social Services,Child Care (YMCA),Child Care Centre,6970 Lisgar Dr,,Mississauga,ON,L5N 8C8,905-824-3692,https://peelchildcare.cioc.ca/record/CDR0559,Community-Based Non-Profit Centre,No,10,,-8881509.96,5400020.622
128,CC-OTH-246,Discovery Montessori - Ninth Line Campus (The),Social Services,Child Care (Other),Child Care Centre,6553 Ninth Line,,Mississauga,ON,L5N 7B9,905-824-9246,https://peelchildcare.cioc.ca/record/CDR0594,Community-Based For-Profit Centre,No,10,160110,-8880882.662,5398924.074
129,CC-PLP-029,Divine Mercy (PLASP),Social Services,Child Care (PLASP),Child Care Centre,2840 Duncairn Dr,,Mississauga,ON,L5M 5C6,905-890-1711,https://peelchildcare.cioc.ca/record/CDR0707,School-Based Centre,Yes,9,284143,-8874851.957,5397573.105
130,CC-PLP-091,Dixie (PLASP),Social Services,Child Care (PLASP),Child Care Centre,1120 Flagship Dr,,Mississauga,ON,L4Y 2K1,905-890-1711,https://peelchildcare.cioc.ca/record/CDR0686,School-Based Centre,Yes,3,109716,-8860615.05,5404991.702
131,CC-YMC-081,Dolson (YMCA),Social Services,Child Care (YMCA),Child Care Centre,90 Remembrance Rd,,Brampton,ON,L7A 0A7,647-990-3338,https://peelchildcare.cioc.ca/record/CDR1650,School-Based Centre,Yes,6,,-8889284.019,5418008.863
132,CC-PLP-137,Dorset Drive (PLASP),Social Services,Child Care (PLASP),Child Care Centre,100 Dorset Dr,,Brampton,ON,L6T 2Y9,905-890-1711,https://peelchildcare.cioc.ca/record/CDR0745,School-Based Centre,Yes,7,68794,-8872049.531,5421610.628
133,CC-PLP-180,Dunrankin Drive (PLASP),Social Services,Child Care (PLASP),Child Care Centre,3700 Dunrankin Dr,,Mississauga,ON,L4T 1V9,905-890-1711,https://peelchildcare.cioc.ca/record/CDR1138,School-Based Centre,Yes,5,16709,-8864450.48,5422678.018
134,CC-OTH-366,EYES Childcare Brampton 320,Social Services,Child Care (Other),Child Care Centre,320 Main St N,14,Brampton,ON,L6V4A3,905-459-5439,https://peel.cioc.ca/record/CDR1796,Community-Based For-Profit Centre,No,1,314876,-8879745.79,5417993.262
135,CC-PLP-209,Eagle Plains (PLASP),Social Services,Child Care (PLASP),Child Care Centre,40 Eagle Plains Dr,,Brampton,ON,L6R 2X8,905-890-1711,https://peelchildcare.cioc.ca/record/CDR0796,School-Based Centre,No,10,309520,-8876896.546,5430458.584
136,CC-OTH-355,Early Learners' Montessori School - Bolton,Social Services,Child Care (Other),Child Care Centre,81 Ellwood Dr W,,Caledon,ON,L7E 4W8,905-857-1700,https://peel.cioc.ca/record/CDR1751,Community-Based For-Profit Centre,No,5,254536,-8875902.798,5445816.66
137,CC-OTH-035,Early Learning Centre - University of Toronto-Mississauga (UTM),Social Services,Child Care (Other),Child Care Centre,3359 Mississauga Rd,,Mississauga,ON,L5C 1C6,905-569-4422,https://peelchildcare.cioc.ca/record/CDR0496,Community-Based Non-Profit Centre,No,8,,-8868157.975,5395455.723
138,CC-PLP-142,Eastbourne (PLASP),Social Services,Child Care (PLASP),Child Care Centre,702 Balmoral Dr,,Brampton,ON,L6T 1X3,905-890-1711,https://peelchildcare.cioc.ca/record/CDR0743,School-Based Centre,Yes,7,241601,-8871741.768,5422501.086
139,CC-OTH-055,Eden Day Care Inc.,Social Services,Child Care (Other),Child Care Centre,3051 Battleford Rd,,Mississauga,ON,L5N 5Z9,905-824-5153,https://peelchildcare.cioc.ca/record/CDR0519,Community-Based Non-Profit Centre,No,9,12007,-8878843.034,5400570.449
140,CC-YMC-018,Edenbrook Hill (YMCA),Social Services,Child Care (YMCA),Child Care Centre,61 Edenbrook Hill Dr,,Brampton,ON,L7A 1X6,905-451-1400 ext 483,https://peelchildcare.cioc.ca/record/CDR0732,School-Based Centre,Yes,6,248807,-8884221.263,5418461.573
141,CC-PLP-052b,Edenrose (PLASP),Social Services,Child Care (PLASP),Child Care Centre,1342 Edenrose St,,Mississauga,ON,L5V 1K9,905-890-1711,https://peelchildcare.cioc.ca/record/CDR0708,School-Based Centre,Yes,6,272734,-8869455.109,5400559.454
142,CC-PLP-052a,Edenrose Early Learning Centre (PLASP),Social Services,Child Care (PLASP),Child Care Centre,1342 Edenrose St,,Mississauga,ON,L5V 1K9,905-890-1711,https://peelchildcare.cioc.ca/record/CDR0555,School-Based Centre,No,6,,-8869456.588,5400523.785
143,CC-OTH-126,Educare Children's Centre,Social Services,Child Care (Other),Child Care Centre,1615 Bloor St,,Mississauga,ON,L4X 1S2,905-625-7871,https://peelchildcare.cioc.ca/record/CDR0444,Community-Based Non-Profit Centre,No,3,239153,-8860013.177,5406998.339
144,CC-OTH-301,Eh to Zed Preschool Canada Early Learning Academy,Social Services,Child Care (Other),Child Care Centre,8814 The Gore Rd,1,Brampton,ON,L6P 0B1,905-794-2929,https://peelchildcare.cioc.ca/record/CDR1392,Community-Based For-Profit Centre,No,8,419973,-8867633.343,5429397.307
145,CC-FDC-025,Eldorado (Family Day Care),Social Services,Child Care (Family Day),Child Care Centre,25 Wardsville Dr,,Brampton,ON,L5H 3J1,905-890-1711,https://peelchildcare.cioc.ca/record/CDR1329,School-Based Centre,Yes,4,275349,-8881011.947,5409136.644
146,CC-OTH-100,Elite Montessori School,Social Services,Child Care (Other),Child Care Centre,6395 Mississauga Rd,,Mississauga,ON,L5N 1A5,905-567-6600,https://peelchildcare.cioc.ca/record/CDR0544,Community-Based For-Profit Centre,No,11,351151,-8875878.008,5403245.249
147,CC-FDC-028,Ellengale (Family Day Care),Social Services,Child Care (Family Day),Child Care Centre,3480 Ellengale Dr,,Mississauga,ON,L5C 1Z7,905-279-1555,https://peelchildcare.cioc.ca/record/CDR1035,School-Based Centre,Yes,6,23756,-8867614.242,5398122.925
148,CC-YMC-023,Ellwood (YMCA),Social Services,Child Care (YMCA),Child Care Centre,35 Ellwood Dr E,,Caledon,ON,L7E 2A7,416-454-5535,https://peelchildcare.cioc.ca/record/CDR0600,School-Based Centre,Yes,5,350922,-8875426.742,5446155.047
149,CC-OTH-024,Erin Mills Co-Op Nursery,Social Services,Child Care (Other),Child Care Centre,2264 Council Ring Rd,,Mississauga,ON,L5L 1B7,905-820-5599,https://peelchildcare.cioc.ca/record/CDR0467,Community-Based Non-Profit Centre,No,8,308060,-8869403.491,5394049.272
150,CC-OTH-361,Erindale Early Education Academy,Social Services,Child Care (Other),Child Care Centre,1133 Dundas St W,,Mississauga,ON,L5C1C4,905-803-1133,https://peel.cioc.ca/record/CDR1783?Number=0,Community-Based For-Profit Centre,No,6,311315,-8865907.524,5397170.795
151,CC-FDC-036,Esker Lake Early Learning and Child Care Centre,Social Services,Child Care (Family Day),Child Care Centre,10420 Heart Lake Rd,,Brampton,ON,L6Z 4S2,905-840-5442,https://peelchildcare.cioc.ca/record/CDR0405?Number=7,School-Based Centre,Yes,2,259836,-8880773.299,5424162.216
152,CC-OTH-016,Eureka Kids,Social Services,Child Care (Other),Child Care Centre,130 Mineola Rd E,,Mississauga,ON,L5G 2E7,905-838-0209,https://peelchildcare.cioc.ca/record/CDR0588,Community-Based For-Profit Centre,No,1,,-8859629.479,5398199.677
153,CC-OTH-034,FUN School,Social Services,Child Care (Other),Child Care Centre,44 Port St W,,Mississauga,ON,L5H 1C9,905-274-4386,https://peelchildcare.cioc.ca/record/CDR0586,Community-Based Non-Profit Centre,No,1,,-8859653.63,5395850.705
154,CC-FDC-013,Fairlawn (Family Day Care),Social Services,Child Care (Family Day),Child Care Centre,40 Fairlawn Blvd,,Brampton,ON,L6P 2X4,416-922-3434,https://peelchildcare.cioc.ca/record/CDR1033,School-Based Centre,Yes,10,390124,-8875045.981,5429599.405
155,CC-PLP-068,Fairview (PLASP),Social Services,Child Care (PLASP),Child Care Centre,3590 Joan Dr,,Mississauga,ON,L5B 1T8,905-890-1711,https://peelchildcare.cioc.ca/record/CDR0688,School-Based Centre,Yes,7,266407,-8865124.933,5402000.665
156,CC-PLP-228,Fairwind Early Early Learning Centre (PLASP),Social Services,Child Care (PLASP),Child Care Centre,5235 Fairwind Dr,,Mississauga,ON,L5R 3L2,905-712-4077,https://peelchildcare.cioc.ca/record/CDR0556,School-Based Centre,No,5,308594,-8868385.872,5404593.308
157,CC-YMC-072,Falconer (YMCA),Social Services,Child Care (YMCA),Child Care Centre,114 Falconer Dr,,Mississauga,ON,L5N 1B4,905-813-1944,https://peelchildcare.cioc.ca/record/CDR0536,Community-Based Non-Profit Centre,No,11,,-8875440.242,5404041.025
158,CC-PLP-181,Fallingdale (PLASP),Social Services,Child Care (PLASP),Child Care Centre,510 Clark Blvd,,Brampton,ON,L6T 2E4,905-890-1711,https://peelchildcare.cioc.ca/record/CDR1051,School-Based Centre,Yes,8,181497,-8873267.772,5422676.295
159,CC-FDC-038,Family Day Care Services - Elm Drive Early Learning and Child Care Centre,Social Services,Child Care (Family Day),Child Care Centre,3492 Kariya Dr,,Mississauga,ON,L5B0L2,905-566-4785,,School-Based Centre,Yes,7,484334,-8864593.68,5401827.673
160,CC-FDC-023,Family Day Care Services - Holy Spirit Early Learning & Child Care Centre,Social Services,Child Care (Family Day),Child Care Centre,25 Bloomsbury Ave,,Brampton,ON,L6P 1W9,416-922-3434,https://peelchildcare.cioc.ca/record/CDR0844,School-Based Centre,Yes,10,280340,-8875468.287,5432175.401
161,CC-OTH-341,Family Tree Child Care Centre Ltd.,Social Services,Child Care (Other),Child Care Centre,194 McEwan Dr E,2,Caledon,ON,L7E 4E5,905-951-7878,https://peelchildcare.cioc.ca/record/CDR1640,Community-Based For-Profit Centre,No,5,19283,-8873065.026,5444380.743
162,CC-PLP-129,Father C.W. Sullivan (PLASP),Social Services,Child Care (PLASP),Child Care Centre,62 Seaborn Rd,,Brampton,ON,L6V 2C1,905-890-1711,https://peelchildcare.cioc.ca/record/CDR0749,School-Based Centre,No,1,63600,-8877390.93,5420072.042
163,CC-PLP-167,Father Clair Tipping (PLASP),Social Services,Child Care (PLASP),Child Care Centre,25 Mountainberry Rd,,Brampton,ON,L6R 1J3,905-890-1711,https://peelchildcare.cioc.ca/record/CDR0741,School-Based Centre,Yes,10,267845,-8875691.883,5429123.633
164,CC-PLP-210,Father Daniel Zanon (PLASP),Social Services,Child Care (PLASP),Child Care Centre,450 Hillcrest Ave,,Mississauga,ON,L5B 4J3,905-890-1711,https://peelchildcare.cioc.ca/record/CDR0679,School-Based Centre,Yes,7,323755,-8864429.727,5399585.203
165,CC-YMC-028,Father Francis McSpiritt (YMCA),Social Services,Child Care (YMCA),Child Care Centre,55 Lexington Rd,,Brampton,ON,L6P 2B1,905-451-1400 ext 483,https://peelchildcare.cioc.ca/record/CDR0847,School-Based Centre,Yes,8,287917,-8871983.395,5430624.628
166,CC-PLP-060,Father Michael Goetz Early Learning Centre (PLASP),Social Services,Child Care (PLASP),Child Care Centre,330 Central Pky W,,Mississauga,ON,L5B 3K6,905-615-0236,https://peelchildcare.cioc.ca/record/CDR0483,School-Based Centre,No,7,,-8865140.063,5400966.311
167,CC-PLP-162,Fernforest (PLASP),Social Services,Child Care (PLASP),Child Care Centre,275 Fernforest Dr,,Brampton,ON,L6R 1L9,905-890-1711,https://peelchildcare.cioc.ca/record/CDR0762,School-Based Centre,Yes,9,218160,-8878596.953,5426286.653
168,CC-OTH-248,First Friends Preschool and Daycare,Social Services,Child Care (Other),Child Care Centre,860 North Park Dr ,12,Brampton,ON,L6S 4N5,905-457-8444,https://peelchildcare.cioc.ca/record/CDR0806,Community-Based For-Profit Centre,No,7,293523,-8877689.715,5423758.111
169,CC-OTH-144,Fletcher's Creek (Fletcher's Creek Children's Centre),Social Services,Child Care (Other),Child Care Centre,92 Malta Ave,,Brampton,ON,L6Y 4C8,905-452-9299,https://peelchildcare.cioc.ca/record/CDR0407,School-Based Centre,Yes,4,200725,-8875550.294,5412722.766
170,CC-PLP-043,Floradale (PLASP),Social Services,Child Care (PLASP),Child Care Centre,210 Paisley Blvd W,,Mississauga,ON,L5B 2A4,905-890-1711,https://peelchildcare.cioc.ca/record/CDR0695,School-Based Centre,Yes,7,23062,-8862770.776,5399379.653
171,CC-PLP-152,Folkstone (PLASP),Social Services,Child Care (PLASP),Child Care Centre,104 Folkstone Cres,,Brampton,ON,L6T 3M5,905-890-1711,https://peelchildcare.cioc.ca/record/CDR0747,School-Based Centre,Yes,8,187846,-8872899.507,5423765.255
172,CC-PLP-028,Forest Ave. (PLASP),Social Services,Child Care (PLASP),Child Care Centre,20 Forest Ave,,Mississauga,ON,L5G 1K7,905-890-1711,https://peelchildcare.cioc.ca/record/CDR0836,School-Based Centre,Yes,1,138997,-8859058.385,5397299.883
173,CC-PLP-102,Forest Glen (PLASP),Social Services,Child Care (PLASP),Child Care Centre,3400 Ponytrail Dr,,Mississauga,ON,L4X 1V5,905-890-1711,https://peelchildcare.cioc.ca/record/CDR0687,School-Based Centre,Yes,3,28640,-8859806.995,5407954.102
174,CC-OTH-113,Forum Italia,Social Services,Child Care (Other),Child Care Centre,195 Forum Dr,,Mississauga,ON,L4Z 3M5,905-507-2713,https://peelchildcare.cioc.ca/record/CDR0503,Community-Based Non-Profit Centre,No,5,,-8866674.01,5405589.871
175,CC-OTH-104,Fun to Learn Montessori,Social Services,Child Care (Other),Child Care Centre,1840 Argentia Rd,,Mississauga,ON,L5N 1P9,905-812-9606,https://peelchildcare.cioc.ca/record/CDR0547,Community-Based For-Profit Centre,No,11,275331,-8876233.567,5404208.014
176,CC-OTH-321,Fun to Learn Montessori - Erindale,Social Services,Child Care (Other),Child Care Centre,2438 Glengarry Rd,,Mississauga,ON,L5C 1Y2,905-276-9606,https://peelchildcare.cioc.ca/record/CDR1443,Community-Based For-Profit Centre,No,7,218609,-8865259.596,5396545.873
177,CC-OTH-331,Garderie Cercle de l'amitie Mississauga (Le Flambeau),Social Services,Child Care (French),Child Care Centre,600 Novo Star Dr,,Mississauga,ON,L5W 1G4,905-403-1587,https://peelchildcare.cioc.ca/record/CDR1484,School-Based Centre,Yes,11,398715,-8873922.904,5408746.433
178,CC-OTH-172,Garderie Du Cercle De L'Amitie (Carrefour des Jeunes),Social Services,Child Care (French),Child Care Centre,375 Centre St N,,Brampton,ON,L6V 4N4,905-459-8008,https://peelchildcare.cioc.ca/record/MAL0127,School-Based Centre,Yes,1,297672,-8880194.293,5420213.874
179,CC-OTH-343,Garderie La Fontaine de l'Amitie,Social Services,Child Care (Other),Child Care Centre,1445 Lewisham Dr,,Mississauga,ON,L5J 3R2,647-834-5503,https://peelchildcare.cioc.ca/record/CDR1652,School-Based Centre,Yes,2,41564,-8866014.819,5390954.944
180,CC-YMC-002,Garthwood Park (YMCA),Social Services,Child Care (YMCA),Child Care Centre,3245 Colonial Dr,,Mississauga,ON,L5L 4K3,905-607-2670,https://peelchildcare.cioc.ca/record/CDR0469,School-Based Centre,Yes,8,,-8871399.265,5392042.676
181,CC-PLP-150,Georges Vanier (PLASP),Social Services,Child Care (PLASP),Child Care Centre,28 Finchgate Blvd,,Brampton,ON,L6T 3H9,905-890-1711,https://peelchildcare.cioc.ca/record/CDR0764,School-Based Centre,Yes,8,172608,-8873448.102,5423383.966
182,CC-OTH-278,Giant Leap,Social Services,Child Care (Other),Child Care Centre,8930 Hwy 50,,Brampton,ON,L6P 3A5,647-367-9321,https://peelchildcare.cioc.ca/record/CDR1130,Community-Based For-Profit Centre,Yes,8,336421,-8867081.167,5430673.343
183,CC-PLP-120,Glendale (PLASP),Social Services,Child Care (PLASP),Child Care Centre,35 Sunset Blvd,,Brampton,ON,L6X 1X1,905-890-1711,https://peelchildcare.cioc.ca/record/CDR0757,School-Based Centre,Yes,1,231024,-8880678.873,5417196.996
184,CC-OTH-105,Glenroy Preschool Centre,Social Services,Child Care (Other),Child Care Centre,755 Bloor St,,Mississauga,ON,L4Y 2M7,905-277-3323,https://peelchildcare.cioc.ca/record/CDR0448,Community-Based For-Profit Centre,No,3,,-8861979.166,5404178.215
185,CC-YMC-030,Goldcrest (YMCA),Social Services,Child Care (YMCA),Child Care Centre,24 Goldcrest Rd,,Brampton,ON,L6S 1G3,905-943-9622 ext 750,https://peelchildcare.cioc.ca/record/CDR1056,School-Based Centre,Yes,8,77366,-8874489.379,5423753.4
186,CC-OTH-120,Golden Orchard Montessori School,Social Services,Child Care (Other),Child Care Centre,1170 Tynegrove Rd,,Mississauga,ON,L4W 3B2,905-629-7555,https://peelchildcare.cioc.ca/record/CDR0447,Community-Based For-Profit Centre,No,3,30726,-8861921.239,5406589.689
187,CC-PLP-166,Good Shepherd (PLASP),Social Services,Child Care (PLASP),Child Care Centre,28 Red River Dr,,Brampton,ON,L6R 2H9,905-890-1711,https://peelchildcare.cioc.ca/record/CDR0772,School-Based Centre,Yes,9,329656,-8877341.379,5427807.654
188,CC-FDC-037,Gordon Graydon Early Learning & Child Care Centre (Family Day Care),Social Services,Child Care (Family Day),Child Care Centre,1490 Ogden Ave,,Mississauga,ON,L5E2H8,905-268-3335,https://peel.cioc.ca/record/CDR1806?Number=0,School-Based Centre,No,1,308403,-8857946.167,5401504.931
189,CC-YMC-055,Great Lakes (YMCA),Social Services,Child Care (YMCA),Child Care Centre,285 Great Lakes Dr,,Brampton,ON,L6R 2R8,905-451-1400 ext 483,https://peelchildcare.cioc.ca/record/CDR0892,School-Based Centre,Yes,9,279800,-8879746.277,5424784.456
190,CC-YMC-031,Grenoble (YMCA),Social Services,Child Care (YMCA),Child Care Centre,33 Greenbriar Rd,,Brampton,ON,L6S 1V8,905-943-9622 ext 750,https://peelchildcare.cioc.ca/record/CDR1055,School-Based Centre,Yes,8,177206,-8874104.666,5425007.264
191,CC-PLP-119,Guardian Angels (PLASP),Social Services,Child Care (PLASP),Child Care Centre,62 Heatherdale Dr,,Brampton,ON,L7A 2H4,905-890-1711,https://peelchildcare.cioc.ca/record/CDR0776,School-Based Centre,Yes,6,225169,-8885455.236,5417065.356
192,CC-OTH-380,Guiding Light Montessori Inc,Social Services,Child Care (Other),Child Care Centre,215 Broadway St,,Mississauga,ON,L5M1J1,647-405-0900,,Community-Based For-Profit Centre,No,11,680,-8873689.551,5400661.109
193,CC-OTH-383,Hakuna Matata Child Care Centre Inc.,Social Services,Child Care (Other),Child Care Centre,5650 Montevideo Rd,,Mississauga,ON,L5N4E4,416-302-5174,,Community-Based For-Profit Centre,No,9,114053,-8878084.241,5400390.317
194,CC-PLP-139,Hanover (PLASP),Social Services,Child Care (PLASP),Child Care Centre,215 Hanover Rd,,Brampton,ON,L6S 1B6,905-890-1711,https://peelchildcare.cioc.ca/record/CDR0750,School-Based Centre,Yes,7,55521,-8875387.536,5422034.446
195,CC-YMC-068,Hanson Road (YMCA),Social Services,Child Care (YMCA),Child Care Centre,30 Hanson Rd,,Mississauga,ON,L5B 3A7,905-270-4137,https://peelchildcare.cioc.ca/record/CDR0446,Community-Based Non-Profit Centre,No,7,4788,-8863913.139,5401624.781
196,CC-OTH-169,Happy Life Centre,Social Services,Child Care (Other),Child Care Centre,68 Rutherford Rd N,,Brampton,ON,L6V 2J1,905-457-1581,https://peelchildcare.cioc.ca/record/CDR0408,Community-Based Non-Profit Centre,No,1,,-8877366.122,5419798.504
197,CC-YMC-061,Harold F. Loughlin (YMCA),Social Services,Child Care (YMCA),Child Care Centre,39 Herkley Dr,,Brampton,ON,L5B 2M4,1-866-943-9622,https://peelchildcare.cioc.ca/record/CDR1162,School-Based Centre,Yes,1,390045,-8877458.782,5420456.693
198,CC-PLP-027,Hawthorn (PLASP),Social Services,Child Care (PLASP),Child Care Centre,2473 Rosemary Dr,,Mississauga,ON,L5C 1X1,905-890-1711,https://peelchildcare.cioc.ca/record/CDR0649,School-Based Centre,Yes,7,121196,-8864914.858,5397272.858
199,CC-OTH-250,Hearts in Bloom Academy,Social Services,Child Care (Other),Child Care Centre,6785 Millcreek Dr,,Mississauga,ON,L5N 5M4,905-785-2671,https://peelchildcare.cioc.ca/record/CDR0532,Community-Based Non-Profit Centre,No,9,,-8877962.534,5403094.667
200,CC-PLP-221,Helen Wilson (PLASP),Social Services,Child Care (PLASP),Child Care Centre,9 Abbey Rd,,Brampton,ON,L5G 1B8,1-866-317-6251,https://peelchildcare.cioc.ca/record/CDR1275,School-Based Centre,Yes,3,55463,-8876751.092,5416280.89
201,CC-YMC-075,Herb Campbell (YMCA),Social Services,Child Care (YMCA),Child Care Centre,3749 King St,,Caledon,ON,L0N 1K0,905-857-3531 ext 310,https://peelchildcare.cioc.ca/record/CDR1360,School-Based Centre,Yes,1,79238,-8890236.665,5432520.537
202,CC-PLP-234,Hewson (PLASP),Social Services,Child Care (PLASP),Child Care Centre,235 Father Tobin Rd,,Brampton,ON,L6R 0G2,905-890-1711,https://peelchildcare.cioc.ca/record/CDR1359,School-Based Centre,Yes,9,296211,-8878837.624,5429348.244
203,CC-FDC-006,Hickory Wood (Family Day Care),Social Services,Child Care (Family Day),Child Care Centre,630 Ray Lawson Blvd,,Brampton,ON,L6Y 4W8,416-922-3434,https://peelchildcare.cioc.ca/record/CDR0409,School-Based Centre,Yes,4,,-8876981.296,5410912.958
204,CC-OTH-373,Hide-N-Seek Daycare Inc.,Social Services,Child Care (Other),Child Care Centre,11093 Kennedy Rd N,,Brampton,ON,L6Z0A3,905-840-9990,https://peel.cioc.ca/record/CDR1754?Number=0,Community-Based For-Profit Centre,No,2,204572,-8883750.738,5424784.177
205,CC-PLP-151,Hilldale (PLASP),Social Services,Child Care (PLASP),Child Care Centre,100 Hilldale Cres,,Brampton,ON,L6S 2N3,905-890-1711,https://peelchildcare.cioc.ca/record/CDR0752,School-Based Centre,Yes,7,278004,-8875309.581,5423631.455
206,CC-YMC-080,Hillside (YMCA),Social Services,Child Care (YMCA),Child Care Centre,1290 Kelly Rd,,Mississauga,ON,L5J 3V1,647-920-6883,https://peelchildcare.cioc.ca/record/CDR1427,School-Based Centre,Yes,2,,-8866205.855,5389761.216
207,CC-PLP-146,Holy Cross (PLASP),Social Services,Child Care (PLASP),Child Care Centre,3615 Morning Star Dr,,Mississauga,ON,L4T 1Y4,905-890-1711,https://peelchildcare.cioc.ca/record/CDR0656,School-Based Centre,Yes,5,95191,-8865123.694,5422960.445
208,CC-YMC-033,Holy Family (YMCA),Social Services,Child Care (YMCA),Child Care Centre,61 Allan Dr,,Caledon,ON,L7E 1P7,647-401-5057,https://peelchildcare.cioc.ca/record/CDR0607,School-Based Centre,Yes,5,216847,-8875102.426,5445914.103
209,CC-PLP-121,Homestead (PLASP),Social Services,Child Care (PLASP),Child Care Centre,99 Fletchers Creek Blvd,,Brampton,ON,L6X 4T7,905-890-1711,https://peelchildcare.cioc.ca/record/CDR0775,School-Based Centre,Yes,5,241372,-8883143.693,5417341.347
210,CC-OTH-381,House of Wonder Early Learning Centre,Social Services,Child Care (Other),Child Care Centre,2101 Dixie Rd,,Mississauga,ON,L4Y1Z1,647-885-7082,,Community-Based For-Profit Centre,No,1,123819,-8857706.564,5403757.868
211,CC-YMC-071,Howden (YMCA),Social Services,Child Care (YMCA),Child Care Centre,355 Howden Blvd,,Brampton,ON,L6S4L6,905-458-7873,https://peelchildcare.cioc.ca/record/CDR0383,Community-Based Non-Profit Centre,No,7,173153,-8876665.51,5421888.257
212,CC-YMC-024,Humberview (YMCA),Social Services,Child Care (YMCA),Child Care Centre,135 Kingsview Dr,,Caledon,ON,L7E 3V8,416-450-4606,https://peelchildcare.cioc.ca/record/CDR0601,School-Based Centre,No,6,201498,-8876349.733,5448228.986
213,CC-PLP-076b,Huntington Ridge (PLASP),Social Services,Child Care (PLASP),Child Care Centre,345 Huntington Ridge Dr,,Mississauga,ON,L5R 1R6,905-890-1711,https://peelchildcare.cioc.ca/record/CDR0709,School-Based Centre,Yes,4,90161,-8867380.886,5403223.825
214,CC-PLP-076a,Huntington Ridge Early Learning Centre (PLASP),Social Services,Child Care (PLASP),Child Care Centre,345 Huntington Ridge Dr,,Mississauga,ON,L5R 1R6,905-890-1711,https://peelchildcare.cioc.ca/record/CDR0557,School-Based Centre,No,4,,-8867378.206,5403276.879
215,CC-OTH-251,Huron Park Montessori,Social Services,Child Care (Other),Child Care Centre,830 Paisley Blvd W,,Mississauga,ON,L5C 3P5,647-400-1436,https://peelchildcare.cioc.ca/record/CDR0460,Community-Based For-Profit Centre,No,7,84168,-8864712.596,5397457.977
216,CC-PLP-251,Huttonville P.S. (PLASP),Social Services,Child Care (PLASP),Child Care Centre,2322 Embleton Rd,,Brampton,ON,L6X0C9,1-888-739-4102,https://peel.cioc.ca/record/CDR1799?Number=1,School-Based Centre,No,6,220352,-8884331.337,5410120.676
217,CC-YMC-034,Ingleborough (YMCA),Social Services,Child Care (YMCA),Child Care Centre,60 Ingleborough Dr,,Brampton,ON,L6S 0X5,905-943-9622 ext 750,https://peelchildcare.cioc.ca/record/CDR1057,School-Based Centre,Yes,5,296039,-8883683.743,5412924.763
218,CC-PLP-171,James Bolton (PLASP),Social Services,Child Care (PLASP),Child Care Centre,225 Kingsview Dr,,Caledon,ON,L7E 3X8,905-890-1711,https://peelchildcare.cioc.ca/record/CDR0603,School-Based Centre,Yes,6,18056,-8876733.13,5447918.679
219,CC-PLP-211,James Potter (PLASP),Social Services,Child Care (PLASP),Child Care Centre,9775 Creditview Rd,,Brampton,ON,L6X 0H7,905-890-1711,https://peelchildcare.cioc.ca/record/CDR0787,School-Based Centre,Yes,5,306225,-8884699.854,5414949.235
220,CC-PLP-183,Janet McDougald (PLASP),Social Services,Child Care (PLASP),Child Care Centre,498 Hartsdale Ave,,Mississauga,ON,L5G 2G6,905-890-1711,https://peelchildcare.cioc.ca/record/CDR1050,School-Based Centre,Yes,1,139170,-8858683.334,5399468.218
221,CC-PLP-160,Jefferson (PLASP),Social Services,Child Care (PLASP),Child Care Centre,48 Jefferson Rd,,Brampton,ON,L6S 2N9,905-890-1711,https://peelchildcare.cioc.ca/record/CDR0756,School-Based Centre,Yes,8,287916,-8875538.019,5425028.619
222,CC-OTH-039,Jingbao Bilingual Children's Centre,Social Services,Child Care (Other),Child Care Centre,3195 Erindale Station Rd,,Mississauga,ON,L5C 1Y5,905-848-5332,https://peelchildcare.cioc.ca/record/CDR1140,Community-Based For-Profit Centre,No,6,28643,-8866336.075,5397802.13
223,CC-PLP-229,John Fraser Early Learning Centre (PLASP),Social Services,Child Care (PLASP),Child Care Centre,2665 Erin Centre Blvd,,Mississauga,ON,L5M 5H6,905-819-1890,https://peelchildcare.cioc.ca/record/CDR0558,School-Based Centre,No,9,,-8874021.644,5397586.752
224,CC-OTH-015,Junior Scholars Preschool,Social Services,Child Care (Other),Child Care Centre,1400 Lakeshore Rd W,1 2 3,Mississauga,ON,L5L 2K8,905-823-7575,https://peelchildcare.cioc.ca/record/CDR0573,Community-Based For-Profit Centre,No,2,39624,-8862671.214,5392149.204
225,CC-OTH-168,KRT Kiddies Kollege,Social Services,Child Care (Other),Child Care Centre,141 Kennedy Rd N,,Brampton,ON,L6V 1X9,905-459-2300,https://peelchildcare.cioc.ca/record/CDR0411,Community-Based Non-Profit Centre,No,1,86080,-8878858.783,5419594.257
226,CC-OTH-019,Kaban Montessori Preschool,Social Services,Child Care (Other),Child Care Centre,2449 Dunwin Dr,,Mississauga,ON,L5L 1T1,905-569-3112,https://peelchildcare.cioc.ca/record/CDR0973,Community-Based For-Profit Centre,Yes,8,324361,-8869944,5393183.453
227,CC-OTH-254,Kaban Montessori School,Social Services,Child Care (Other),Child Care Centre,2465 Dunwin Dr ,1A 1B,Mississauga,ON,L5L 1T4,905-569-3112,https://peelchildcare.cioc.ca/record/CDR0973,Community-Based For-Profit Centre,No,8,400186,-8869941.95,5393108.438
228,CC-OTH-255,Kendellhurst Academy Inc.,Social Services,Child Care (Other),Child Care Centre,175 Queen St S,,Mississauga,ON,L5M 1L2,905-567-1070,https://peelchildcare.cioc.ca/record/CDR0545,Community-Based For-Profit Centre,No,11,248372,-8873719.418,5400999.666
229,CC-YMC-067,Kennedy Road North (YMCA),Social Services,Child Care (YMCA),Child Care Centre,9996 Kennedy Rd,,Brampton,ON,L6T 3S1,905-457-6006,https://peelchildcare.cioc.ca/record/CDR0439,Community-Based Non-Profit Centre,No,1,232317,-8880671.991,5421437.33
230,CC-YMC-035,Kenollie (YMCA),Social Services,Child Care (YMCA),Child Care Centre,1376 Glenwood Dr,,Mississauga,ON,L5G 2X1,416-509-5200,https://peelchildcare.cioc.ca/record/CDR0834,School-Based Centre,Yes,1,288025,-8860810.13,5397166.656
231,CC-OTH-374,Khalsa Montessori School,Social Services,Child Care (Other),Child Care Centre,11499 The Gore Rd,,Brampton,ON,L6P0B2,905-913-0801,https://peel.cioc.ca/record/CDR0336?Number=0,Community-Based For-Profit Centre,No,10,167486,-8874520.223,5437009.064
232,CC-OTH-344,Kids & Company - Brampton,Social Services,Child Care (Other),Child Care Centre,75 Dufay Rd,C,Brampton,ON,L7A 4J1,905-843-2261,https://peelchildcare.cioc.ca/record/CDR1653,Community-Based For-Profit Centre,No,6,151408,-8888186.806,5415775.505
233,CC-OTH-256,Kids & Company - Robert Speck Parkway,Social Services,Child Care (Other),Child Care Centre,1 Robert Speck Pky,110,Mississauga,ON,L4Z 3M3,905-848-5437,https://peelchildcare.cioc.ca/record/CDR0515,Community-Based For-Profit Centre,No,4,7683,-8865327.238,5403293.155
234,CC-OTH-325,Kids & Company Mississauga,Social Services,Child Care (Other),Child Care Centre,85 Prologis Blvd,,Mississauga,ON,L5W 0G4,905-564-9888,https://peelchildcare.cioc.ca/record/CDR1466,Community-Based For-Profit Centre,No,5,405479,-8871499.722,5408919.476
235,CC-OTH-339,Kids Development Daycare,Social Services,Child Care (Other),Child Care Centre,23 Conservation Dr,9 10,Brampton,ON,L6Z 4R3,905-625-5355,https://peelchildcare.cioc.ca/record/CDR1616,Community-Based For-Profit Centre,No,2,331009,-8884756.847,5423094.416
236,CC-OTH-370,Kids Fun Club,Social Services,Child Care (Other),Child Care Centre,8920 Highway 50,5B,Brampton,ON,L6P3A3,647-367-9321,https://peel.cioc.ca/record/CDR1808?Number=0,Community-Based For-Profit Centre,No,8,304212,-8867033.223,5430695.935
237,CC-OTH-078,Kids Palace Nursery School,Social Services,Child Care (Other),Child Care Centre,20 Mississauga Valley Blvd,,Mississauga,ON,L5A 3S1,905-275-3657,https://peelchildcare.cioc.ca/record/CDR0449,Community-Based For-Profit Centre,No,4,32436,-8864016.543,5402221.761
238,CC-OTH-012,Kids Zone Childcare Centre,Social Services,Child Care (Other),Child Care Centre,2275 Speakman Dr,4 5,Mississauga,ON,L5K 1B1,905-403-9351,https://peelchildcare.cioc.ca/record/CDR0493,Community-Based For-Profit Centre,No,2,126091,-8867519.496,5391727.916
239,CC-OTH-353,Kidtopia Child Care Centre,Social Services,Child Care (Other),Child Care Centre,2233 Argentia Rd,,Mississauga,ON,L5N 2X7,905-858-8181,https://peel.cioc.ca/record/CDR1731,Community-Based For-Profit Centre,No,9,8144,-8877245.601,5403400.9
240,CC-OTH-351,Kidz Kove Childcare Centre,Social Services,Child Care (Other),Child Care Centre,4870 Tomken Rd,7,Mississauga,ON,L4W 1J8,905-602-6656,https://peelchildcare.cioc.ca/record/CDR1721,Community-Based For-Profit Centre,No,3,257847,-8864298.24,5407710.694
241,CC-OTH-093,Kinder Kampus 3,Social Services,Child Care (Other),Child Care Centre,6981 Millcreek Dr ,12,Mississauga,ON,L5N 6B8,905-567-4780,https://peelchildcare.cioc.ca/record/CDR0561,Community-Based For-Profit Centre,No,9,260256,-8878746.292,5403426.575
242,CC-OTH-289,Kinder Kids International Preschool,Social Services,Child Care (Other),Child Care Centre,1575 Clarkson Rd N,1,Mississauga,ON,L5J 2X1,905-855-1111,https://peelchildcare.cioc.ca/record/CDR1355,Community-Based For-Profit Centre,No,2,,-8865301.586,5392790.311
243,CC-PLP-059,Kindree (PLASP),Social Services,Child Care (PLASP),Child Care Centre,7370 Terragar Blvd,,Mississauga,ON,L5N 7L8,905-890-1711,https://peelchildcare.cioc.ca/record/CDR0730,School-Based Centre,Yes,10,248989,-8882088.832,5401153.636
244,CC-OTH-294,King Academy Child Care Centre Inc.,Social Services,Child Care (Other),Child Care Centre,225 Castle Oaks Cross,13-Nov,Brampton,ON,L6P 3X3,905-913-0754,https://peelchildcare.cioc.ca/record/CDR1371,Community-Based For-Profit Centre,No,10,390102,-8868446.962,5433950.599
245,CC-PLP-126,Kingswood Drive (PLASP),Social Services,Child Care (PLASP),Child Care Centre,235 Kingsview Dr,,Brampton,ON,L6V 3B3,905-890-1711,https://peelchildcare.cioc.ca/record/CDR0758,School-Based Centre,Yes,1,60756,-8879488.745,5419464.583
246,CC-OTH-276,Lakeside Montessori,Social Services,Child Care (Other),Child Care Centre,1079 Lakeshore Rd E,,Mississauga,ON,L5E 1E8,905-891-8332,https://peelchildcare.cioc.ca/record/CDR1143,Community-Based For-Profit Centre,No,1,,-8856330.838,5400407.256
247,CC-PLP-231,Lancaster (PLASP),Social Services,Child Care (PLASP),Child Care Centre,7425 Netherwood Rd,,Mississauga,ON,L4T 2N7,905-791-2017,https://peelchildcare.cioc.ca/record/CDR0593,School-Based Centre,Yes,5,,-8866321.152,5421886.17
248,CC-YMC-020,Larkspur (YMCA),Social Services,Child Care (YMCA),Child Care Centre,111 Larkspur Rd,,Brampton,ON,L6S 1X2,416-716-1352,https://peelchildcare.cioc.ca/record/CDR0845,School-Based Centre,Yes,9,336449,-8877664.173,5427507.617
249,CC-OTH-359,Laugh & Learn Children Services Inc.,Social Services,Child Care (Other),Child Care Centre,15 Beaumaris Dr,,Brampton,ON,L6T5J6,905-789-8900,https://peel.cioc.ca/record/CDR1780?Number=0,Community-Based For-Profit Centre,No,8,484379,-8867706.498,5429067.818
250,CC-OTH-375,Le Petit Kangaroo Child Care Centre,Social Services,Child Care (Other),Child Care Centre,68 Bramalea Rd,1,Brampton,ON,L6T0H3,905-216-2024,https://peelchildcare.cioc.ca/record/CDR1814?Number=0,Community-Based For-Profit Centre,No,7,426201,-8871757.22,5420285.815
251,CC-OTH-061,Learning Jungle School,Social Services,Child Care (Other),Child Care Centre,78 Agnes St,,Mississauga,ON,L5B 1J7,905-273-7023,https://peelchildcare.cioc.ca/record/CDR0513,Community-Based For-Profit Centre,No,7,219449,-8863159.333,5400544.239
252,CC-PLP-141,Lester B. Pearson (PLASP),Social Services,Child Care (PLASP),Child Care Centre,140 Howden Blvd,,Brampton,ON,L6S 2G1,905-890-1711,https://peelchildcare.cioc.ca/record/CDR0754,School-Based Centre,Yes,7,300914,-8875372.141,5422673.593
253,CC-YMC-036,Levi Creek (YMCA),Social Services,Child Care (YMCA),Child Care Centre,1525 Samuelson Cir,,Mississauga,ON,L5N 7Z1,905-564-9879 ext 7,https://peelchildcare.cioc.ca/record/CDR0862,School-Based Centre,Yes,11,300029,-8877454.723,5407251.77
254,CC-OTH-376,Light of the World Christian Childcare Centre,Social Services,Child Care (Other),Child Care Centre,12091 Hurontario St,,Brampton,ON,L6Z4P8,647-333-7939,,Community-Based Non-Profit Centre,No,2,204060,-8886320.066,5424693.221
255,CC-OTH-058,Little Angels Christian Child Care - 1,Social Services,Child Care (Other),Child Care Centre,1245 Eglinton Ave W,,Mississauga,ON,L5V 2M4,905-814-7774 ext 278,https://peelchildcare.cioc.ca/record/CDR0538,Community-Based Non-Profit Centre,No,6,,-8870368.641,5400703.515
256,CC-OTH-258,Little Angels Christian Child Care - 2,Social Services,Child Care (Other),Child Care Centre,6341 Mississauga Rd,,Mississauga,ON,L5N 1A5,905-567-6800,https://peelchildcare.cioc.ca/record/CDR0863,Community-Based Non-Profit Centre,No,11,,-8875462.385,5403018.433
257,CC-OTH-333,Little Bloomers Childcare Centre,Social Services,Child Care (Other),Child Care Centre,153 Queen St W,,Brampton,ON,L6Y 1M4,905-499-0789,https://peelchildcare.cioc.ca/record/CDR1602,Community-Based For-Profit Centre,No,3,48892,-8879200.712,5416435.094
258,CC-OTH-008,Little Bright Stars,Social Services,Child Care (Other),Child Care Centre,2575 Dundas St W,18,Mississauga,ON,L5K 2M6,905-569-2267,https://peelchildcare.cioc.ca/record/CDR0465,Community-Based For-Profit Centre,No,8,,-8869951.451,5392321.288
259,CC-OTH-129,Little Folks Montessori Inc.,Social Services,Child Care (Other),Child Care Centre,1555 Steeles Ave W,,Brampton,ON,L6Y 5J9,905-455-1264,https://peelchildcare.cioc.ca/record/CDR0431,Community-Based For-Profit Centre,No,6,264886,-8879651.082,5409052.933
260,CC-OTH-128,Little Folks Montessori Pre-School Inc.,Social Services,Child Care (Other),Child Care Centre,3315 Fieldgate Dr,,Mississauga,ON,L4X 2J3,905-624-6414,https://peelchildcare.cioc.ca/record/CDR0485,Community-Based For-Profit Centre,No,3,97426,-8859525.863,5407272.24
261,CC-OTH-378,Little Galaxy Childcare & Montessori ,Social Services,Child Care (Other),Child Care Centre,10960 Goreway Dr,,Brampton,ON,L6P 0N1,905-247-5507,,Community-Based For-Profit Centre,,10,495800,-8876387.542,5433230.374
262,CC-OTH-124,Little Leaf Daycare,Social Services,Child Care (Other),Child Care Centre,5685 Whittle Rd,,Mississauga,ON,L4Z 3P8,905-568-4069,https://peelchildcare.cioc.ca/record/CDR0539,Community-Based For-Profit Centre,No,5,24946,-8868601.851,5407163.456
263,CC-OTH-063,Little Rascals Preschool,Social Services,Child Care (Other),Child Care Centre,158A Queen St S,,Mississauga,ON,L5M 1K8,905-858-0177,https://peelchildcare.cioc.ca/record/CDR0505,Community-Based For-Profit Centre,No,11,264872,-8873838.063,5401042.658
264,CC-OTH-260,Little Stars Daycare,Social Services,Child Care (Other),Child Care Centre,527 Van Kirk Dr ,105,Brampton,ON,L7A 0P4,905-970-0638,https://peelchildcare.cioc.ca/record/CDR0968,Community-Based For-Profit Centre,No,2,158444,-8886863.941,5423148.801
265,CC-OTH-057,Little Superstars Montessori & DayCare,Social Services,Child Care (Other),Child Care Centre,3022 Novar Rd,,Mississauga,ON,L5B 1S4,905-232-0059,https://peelchildcare.cioc.ca/record/CDR0488,Community-Based For-Profit Centre,No,7,247531,-8863254.361,5400407.733
266,CC-PLP-222,Lorenville (PLASP),Social Services,Child Care (PLASP),Child Care Centre,10 Lorenville Dr,,Brampton,ON,L5G 1B8,1-866-317-6251,https://peelchildcare.cioc.ca/record/CDR1274,School-Based Centre,Yes,5,317819,-8884504.651,5413518.589
267,CC-PLP-013,Lorne Park (PLASP),Social Services,Child Care (PLASP),Child Care Centre,1325 Indian Rd,,Mississauga,ON,L5H 1S3,905-890-1711,https://peelchildcare.cioc.ca/record/CDR0662,School-Based Centre,Yes,2,125871,-8864096.548,5394091.321
268,CC-OTH-384,Lullaboo Childcare Center - Wanless,Social Services,Child Care (Other),Child Care Centre,760 Wanless Dr,,Brampton,ON,L7A0A9,905-863-1146,,Community-Based For-Profit Centre,No,6,495149,-8886679.813,5420817.633
269,CC-OTH-368,Lullaboo Meadowvale,Social Services,Child Care (Other),Child Care Centre,6677 Meadowvale Town Centre Cir,,Mississauga,ON,L5N2R5,289-410-0111,https://peel.cioc.ca/record/CDR1802?Number=1,Community-Based For-Profit Centre,,9,229851,-8878768.938,5401108.206
270,CC-OTH-302,Lullaboo Nursery and Child Care - Churchill,Social Services,Child Care (Other),Child Care Centre,8015 Financial Dr,,Brampton,ON,L6Y 0J8,289-410-0111,https://peelchildcare.cioc.ca/record/CDR1389,Community-Based For-Profit Centre,No,4,396099,-8879982.932,5408902.318
271,CC-OTH-334,Lullaboo Nursery and Child Care - Heartland,Social Services,Child Care (Other),Child Care Centre,5510 Mavis Rd,,Mississauga,ON,L5V 2X5,289-444-5055,https://peelchildcare.cioc.ca/record/CDR1601,Community-Based For-Profit Centre,No,6,265803,-8870843.207,5404577.856
272,CC-OTH-261,Lullaboo Nursery and Child Care - Mississauga,Social Services,Child Care (Other),Child Care Centre,5329 Ninth Line,,Mississauga,ON,L5M 5X5,905-936-7162,https://peelchildcare.cioc.ca/record/CDR0886,Community-Based For-Profit Centre,No,10,,-8877033.448,5395070.618
273,CC-OTH-320,Lullaboo Nursery and Child Care - Queen,Social Services,Child Care (Other),Child Care Centre,1450 Queen St W,,Brampton,ON,L6X 0B2,289-298-5370,https://peelchildcare.cioc.ca/record/CDR1433,Community-Based For-Profit Centre,No,5,400491,-8882368.198,5412636.924
274,CC-OTH-327,Ma Petite Maison Childcare,Social Services,Child Care (French),Child Care Centre,354 Queen St S,,Mississauga,ON,L5M 1M2,416-389-0681,https://peelchildcare.cioc.ca/record/CDR1470,Community-Based For-Profit Centre,No,11,93448,-8872857.24,5400043.078
275,CC-PLP-250,Malala Yousafzai P.S. (PLASP),Social Services,Child Care (PLASP),Child Care Centre,1248 Mayfield Rd,,Caledon,ON,L7C 0Y7,905-890-1711,https://peelchildcare.cioc.ca/record/CDR1714,School-Based Centre,No,2,206835,-8890248.031,5419204.484
276,CC-PLP-072,Maplewood (PLASP),Social Services,Child Care (PLASP),Child Care Centre,2650 Gananoque Dr,,Mississauga,ON,L5N 2R2,905-890-1711,https://peelchildcare.cioc.ca/record/CDR0706,School-Based Centre,Yes,9,233692,-8879019.81,5402768.22
277,CC-OTH-382,Maplewood Academy,Social Services,Child Care (Other),Child Care Centre,3580 Thomas St,,Mississauga,ON,L5M2S6,647-967-7400,,Community-Based For-Profit Centre,No,10,493973,-8876764.993,5397302.251
278,CC-PLP-185,Marvin Heights (PLASP),Social Services,Child Care (PLASP),Child Care Centre,7455 Redstone Rd,,Mississauga,ON,L4T 2B3,905-890-1711,https://peelchildcare.cioc.ca/record/CDR1052,School-Based Centre,Yes,5,23422,-8866903.793,5421504.328
279,CC-YMC-062,Mary Fix (YMCA),Social Services,Child Care (YMCA),Child Care Centre,486 Paisley Blvd W,,Mississauga,ON,L6V 2E7,1-647-298-7345,https://peelchildcare.cioc.ca/record/CDR1291,School-Based Centre,Yes,7,224073,-8863748.528,5398723.054
280,CC-PLP-159,Massey Street (PLASP),Social Services,Child Care (PLASP),Child Care Centre,95 Massey St,,Brampton,ON,L6S 3A3,905-890-1711,https://peelchildcare.cioc.ca/record/CDR0759,School-Based Centre,Yes,7,174342,-8877364.563,5424962.73
281,CC-PLP-034,McBride (PLASP),Social Services,Child Care (PLASP),Child Care Centre,974 McBride Ave,,Mississauga,ON,L5C 1L6,905-890-1711,https://peelchildcare.cioc.ca/record/CDR0651,School-Based Centre,Yes,6,277595,-8866212.849,5398162.034
282,CC-PLP-240,McClure (PLASP),Social Services,Child Care (PLASP),Child Care Centre,50 Parity Rd,,Brampton,ON,L6X 5M8,1-888-739-4102,https://peelchildcare.cioc.ca/record/CDR1441,School-Based Centre,Yes,5,423160,-8882531.44,5414746.044
283,CC-YMC-038,McHugh (YMCA),Social Services,Child Care (YMCA),Child Care Centre,31 Craig St,,Brampton,ON,L6Y 1J2,416-928-9622,https://peelchildcare.cioc.ca/record/CDR0736,School-Based Centre,Yes,3,390972,-8878752.254,5416010.184
284,CC-PLP-186,McKinnon (PLASP),Social Services,Child Care (PLASP),Child Care Centre,3270 Tacc Dr,,Mississauga,ON,L5M 0H3,905-890-1711,https://peelchildcare.cioc.ca/record/CDR0721,School-Based Centre,Yes,10,291067,-8875928.298,5396192.541
285,CC-OTH-290,Meadow Green Preschool,Social Services,Child Care (Other),Child Care Centre,649 Queensway W,,Mississauga,ON,L6R 3G2,905-273-3344,https://peelchildcare.cioc.ca/record/CDR0163,Community-Based For-Profit Centre,No,7,117059,-8863643.921,5397740.184
286,CC-YMC-057,Meadowvale (YMCA),Social Services,Child Care (YMCA),Child Care Centre,6700 Edenwood Dr,,Mississauga,ON,L5N 3B2,1-416-928-9622,https://peel.cioc.ca/record/CDR1768,School-Based Centre,No,,11607,-8879039.559,5400389.429
287,CC-YMC-039,Meadowvale Village (YMCA),Social Services,Child Care (YMCA),Child Care Centre,890 Old Derry Rd W,,Mississauga,ON,L5W 1A1,416-569-7363,https://peelchildcare.cioc.ca/record/CDR0860,School-Based Centre,Yes,11,210662,-8874886.705,5407970.857
288,CC-YMC-083,Meadowvale YMCA Child Care Centre,Social Services,Child Care (YMCA),Child Care Centre,6700 Edenwood Dr,,Mississauga,ON,L5N3B2,416-928-9622,https://peel.cioc.ca/record/CDR1768?Number=0 ,School-Based Centre,No,9,16266,-8879039.559,5400389.429
289,CC-PLP-073,Metropolitan Andrei (PLASP),Social Services,Child Care (PLASP),Child Care Centre,515 Mississauga Valley Blvd,,Mississauga,ON,L5A 3G6,905-890-1711,https://peelchildcare.cioc.ca/record/CDR0690,School-Based Centre,Yes,4,267585,-8862520.087,5402629.437
290,CC-YMC-008,Middlebury (YMCA),Social Services,Child Care (YMCA),Child Care Centre,5482 Middlebury Dr,,Mississauga,ON,L5M 5E8,905-821-2169,https://peelchildcare.cioc.ca/record/CDR0506,School-Based Centre,Yes,9,289147,-8874635.717,5398428.185
291,CC-OTH-356,Mighty Wonders Preschool and Childcare,Social Services,Child Care (Other),Child Care Centre,6945 Meadowvale Town Centre Circle,,Mississauga,ON,L5N 2W7,905-858-5800,https://peelchildcare.cioc.ca/record/CDR1746?Number=7,Community-Based For-Profit Centre,No,9,262903,-8878623.264,5401112.657
292,CC-OTH-084,Millcreek Kinder Kampus,Social Services,Child Care (Other),Child Care Centre,6685 Millcreek Dr ,10,Mississauga,ON,L5N 5M5,905-567-1111,https://peelchildcare.cioc.ca/record/CDR0521,Community-Based For-Profit Centre,No,9,400185,-8877332.932,5402995.208
293,CC-PLP-042,Miller's Grove (PLASP),Social Services,Child Care (PLASP),Child Care Centre,6325 Miller's Grove,,Mississauga,ON,L5N 3C8,905-890-1711,https://peelchildcare.cioc.ca/record/CDR0724,School-Based Centre,Yes,9,13229,-8878371.274,5399485.297
294,CC-PLP-035,Mineola (PLASP),Social Services,Child Care (PLASP),Child Care Centre,145 Windy Oaks,,Mississauga,ON,L5G 1Z4,905-890-1711,https://peelchildcare.cioc.ca/record/CDR0839,School-Based Centre,Yes,1,396717,-8859392.191,5398163.862
295,CC-OTH-005,Mini Skool - A Child's Place Inc.,Social Services,Child Care (Other),Child Care Centre,2501 Truscott Dr,,Mississauga,ON,L5J 2B3,905-823-3000,https://peelchildcare.cioc.ca/record/CDR0666,Community-Based Non-Profit Centre,No,2,32393,-8866592.21,5389948.064
296,CC-OTH-188,Mini Skool - Bramalea,Social Services,Child Care (Other),Child Care Centre,27 King's Cross Rd,,Brampton,ON,L6T 3V5,905-792-2230,https://peelchildcare.cioc.ca/record/CDR0384,Community-Based Non-Profit Centre,No,7,172383,-8874026.331,5422243.146
297,CC-OTH-164,Mini Skool - Brampton,Social Services,Child Care (Other),Child Care Centre,178 Church St E,,Brampton,ON,L6V 1H1,905-457-1248,https://peelchildcare.cioc.ca/record/CDR0438,Community-Based Non-Profit Centre,No,1,56778,-8878157.413,5418708.455
298,CC-OTH-003,Mini Skool - Bromsgrove,Social Services,Child Care (Other),Child Care Centre,2488 Bromsgrove Rd,,Mississauga,ON,L5J 1L8,905-823-3000,https://peelchildcare.cioc.ca/record/CDR0567,Community-Based Non-Profit Centre,No,2,39387,-8866049.88,5389223.176
299,CC-OTH-101,Mini Skool - Cawthra,Social Services,Child Care (Other),Child Care Centre,3153 Cawthra Rd,,Mississauga,ON,L5A 2X4,905-276-3933,https://peelchildcare.cioc.ca/record/CDR0482,Community-Based Non-Profit Centre,No,3,30101,-8861455.976,5403454.236
300,CC-OTH-182,Mini Skool - Clubhouse (106A),Social Services,Child Care (Other),Child Care Centre,723 Balmoral Dr,,Brampton,ON,L6T 1X5,905-793-2230,https://peelchildcare.cioc.ca/record/CDR1454,Community-Based Non-Profit Centre,No,7,176118,-8871442.969,5422032.625
301,CC-OTH-182,Mini Skool - Clubhouse (106B),Social Services,Child Care (Other),Child Care Centre,420 Balmoral Dr,,Brampton,ON,L6T 1V9,905-792-2230,https://peelchildcare.cioc.ca/record/CDR0893,Community-Based Non-Profit Centre,No,7,191306,-8873127.973,5421276.81
302,CC-OTH-082,Mississauga Children Montessori - Crosscurrent Campus,Social Services,Child Care (Other),Child Care Centre,2980 Crosscurrent Dr,1 2,Mississauga,ON,L5C 7C7,905-785-0144,https://peelchildcare.cioc.ca/record/CDR0560,Community-Based For-Profit Centre,No,9,,-8880969.699,5402918.768
303,CC-OTH-074,Mississauga Civic Centre Workplace Day Care,Social Services,Child Care (Other),Child Care Centre,300 City Centre Dr,,Mississauga,ON,L5B 3C1,905-896-5633,https://peelchildcare.cioc.ca/record/CDR0451,Community-Based Non-Profit Centre,No,4,,-8866006.682,5401987.259
304,CC-OTH-360,Mississauga East ATCD,Social Services,Child Care (Other),Child Care Centre,977 Panterra Dr,,Mississauga,ON,L4W2T4,905-624-0033,https://peel.cioc.ca/record/CDR1784?Number=0,Community-Based For-Profit Centre,No,5,22637,-8865375.812,5408495.225
305,CC-YMC-066,Mississauga Ridgeway (YMCA),Social Services,Child Care (YMCA),Child Care Centre,3595 Ridgeway Dr,,Mississauga,ON,L5L 5T4,905-607-0518,https://peelchildcare.cioc.ca/record/CDR0470,Community-Based Non-Profit Centre,No,8,281962,-8872855.674,5392133.769
306,CC-YMC-073,Mississauga Valley (YMCA),Social Services,Child Care (YMCA),Child Care Centre,1275 Mississauga Valley Blvd,,Mississauga,ON,L5A 3R8,905-276-5038,https://peelchildcare.cioc.ca/record/CDR0481,Community-Based Non-Profit Centre,No,4,,-8863669.412,5403350.321
307,CC-YMC-012,Mississauga YMCA,Social Services,Child Care (YMCA),Child Care Centre,325 Burnhamthorpe Rd W,,Mississauga,ON,L5B 3R2,905-897-6801 ext 440,https://peelchildcare.cioc.ca/record/CDR0452,Community-Based Non-Profit Centre,No,4,2489,-8865962.61,5401728.697
308,CC-OTH-287,Montessori Leaders Casa,Social Services,Child Care (Other),Child Care Centre,20 Red Maple Dr,1,Brampton,ON,L6X 4N7,905-455-7758,https://peelchildcare.cioc.ca/record/CDR0986,Community-Based For-Profit Centre,No,5,53666,-8882353.575,5417996.974
309,CC-OTH-340,Montessori in the Woods Inc.,Social Services,Child Care (Other),Child Care Centre,1261 North Sheridan Way,,Mississauga,ON,L5H 2A3,416-887-9096,https://peelchildcare.cioc.ca/record/CDR1618,Community-Based For-Profit Centre,No,8,230689,-8864405.078,5394706.487
310,CC-OTH-263,MontessoriWorks - The School for Me,Social Services,Child Care (Other),Child Care Centre,3050 Artesian Dr ,1 2 3,Mississauga,ON,L5M 7P5,905-569-1000,https://peelchildcare.cioc.ca/record/CDR0550,Community-Based For-Profit Centre,No,8,278397,-8873855.952,5395398.473
311,CC-YMC-065,Morningstar (YMCA),Social Services,Child Care (YMCA),Child Care Centre,3500 Morning Star Dr,,Mississauga,ON,L4T 1Y2,905-677-8929,https://peelchildcare.cioc.ca/record/CDR0590,Community-Based Non-Profit Centre,No,5,63864,-8865457.448,5422688.887
312,CC-PLP-108,Morton Way (PLASP),Social Services,Child Care (PLASP),Child Care Centre,200 Morton Way,,Brampton,ON,L6Y 2P8,905-890-1711,https://peelchildcare.cioc.ca/record/CDR0760,School-Based Centre,Yes,4,252624,-8877845.208,5412404.784
313,CC-OTH-330,Mount Pleasant Montessori,Social Services,Child Care (Other),Child Care Centre,15 Ashby Field,4-Jan,Brampton,ON,L6X 3B7,905-452-8884,https://peelchildcare.cioc.ca/record/CDR1322,Community-Based For-Profit Centre,No,5,400187,-8885690.131,5414914.921
314,CC-PLP-187,Mount Pleasant Village (PLASP),Social Services,Child Care (PLASP),Child Care Centre,100 Commuter Dr,,Brampton,ON,L7A 0P7,905-890-1711,https://peelchildcare.cioc.ca/record/CDR1013,School-Based Centre,Yes,6,337866,-8885968.743,5415593.674
315,CC-PLP-188,Mount Royal (PLASP),Social Services,Child Care (PLASP),Child Care Centre,65 Mount Royal Cir,,Brampton,ON,L6P 2K4,905-890-1711,https://peelchildcare.cioc.ca/record/CDR0793,School-Based Centre,No,10,291700,-8877565.602,5433033.803
316,CC-FDC-030,Mountain Ash (Family Day Care),Social Services,Child Care (Family Day),Child Care Centre,280 Mountainash Rd,,Brampton,ON,L6R 3G2,905-793-7595,https://peelchildcare.cioc.ca/record/CDR0794,School-Based Centre,Yes,10,236805,-8877112.59,5430230.736
317,CC-PLP-230,Munden Park (PLASP),Social Services,Child Care (PLASP),Child Care Centre,515 Tedwyn Dr,,Mississauga,ON,L5A 1J8,905-279-9251,https://peelchildcare.cioc.ca/record/CDR1368?Number=285,School-Based Centre,Yes,7,112902,-8860193.424,5401177.467
318,CC-OTH-345,My First Montessori School Inc.,Social Services,Child Care (Other),Child Care Centre,11210 Creditview Rd,C,Brampton,ON,L7A 4X3,416-834-6540,https://peelchildcare.cioc.ca/record/CDR1619,Community-Based For-Profit Centre,No,6,444807,-8888718.691,5418742.196
319,CC-FDC-004,Nahani Way (Family Day Care),Social Services,Child Care (Family Day),Child Care Centre,235 Nahani Way,,Mississauga,ON,L4Z 3J6,416-922-3434,https://peelchildcare.cioc.ca/record/CDR0507,School-Based Centre,Yes,5,,-8866696.869,5406022.816
320,CC-FDC-031,Nelson Mandela (Family Day Care),Social Services,Child Care (Family Day),Child Care Centre,10125 Chinguacousy Rd,,Brampton,ON,L7A 3Z6,416-922-3434,https://peelchildcare.cioc.ca/record/CDR1362,School-Based Centre,Yes,6,400220,-8884790.829,5417797.42
321,CC-OTH-349,Nestlings Early Learning & Childcare,Social Services,Child Care (Other),Child Care Centre,17 Dean St,,Brampton,ON,L6W 1M7,647-302-8553,https://peelchildcare.cioc.ca/record/CDR1712,Community-Based For-Profit Centre,No,3,46608,-8876405.063,5416943.325
322,CC-OTH-081,New Playland Nursery,Social Services,Child Care (Other),Child Care Centre,28 Elm Dr W,,Mississauga,ON,L5B 1L9,905-276-8802,https://peelchildcare.cioc.ca/record/CDR0454,Community-Based For-Profit Centre,No,7,289794,-8864566.033,5402200.949
323,CC-OTH-143,New Steps 2 - Brampton (St. Augustine),Social Services,Child Care (Other),Child Care Centre,27 Drinkwater Rd,,Brampton,ON,L6Y 4T6,905-451-4140,https://peelchildcare.cioc.ca/record/CDR0412,School-Based Centre,No,4,298901,-8879383.71,5412685.951
324,CC-OTH-041,Northridge Montessori School,Social Services,Child Care (Other),Child Care Centre,2185 Stavebank Rd,,Mississauga,ON,L5C 1T3,905-281-0840,https://peelchildcare.cioc.ca/record/CDR0044,Community-Based For-Profit Centre,No,7,396700,-8862877.081,5397917.963
325,CC-OTH-264,Northstar Montessori,Social Services,Child Care (Other),Child Care Centre,4900 Tomken Rd,,Mississauga,ON,L4W 1J8,905-890-7827,https://peelchildcare.cioc.ca/record/CDR0514,Community-Based For-Profit Centre,No,3,233771,-8864527.581,5407530.555
326,CC-PLP-116,Northwood (PLASP),Social Services,Child Care (PLASP),Child Care Centre,70 Gretna Dr,,Brampton,ON,L6X 2E9,905-890-1711,https://peelchildcare.cioc.ca/record/CDR0761,School-Based Centre,Yes,5,215113,-8880522.287,5415266.271
327,CC-OTH-011,Olive Grove Preschool and Childcare,Social Services,Child Care (Other),Child Care Centre,2300 Speakman Dr,,Mississauga,ON,L5K 1B4,905-855-8557,https://peelchildcare.cioc.ca/record/CDR0495,Community-Based Non-Profit Centre,No,2,,-8867473.138,5391471.963
328,CC-OTH-316,Open Book Daycare Centres Inc.,Social Services,Child Care (Other),Child Care Centre,725 Balmoral Dr,,Brampton,ON,L6T 1X6,647-242-6076,https://peelchildcare.cioc.ca/record/CDR1423,Community-Based For-Profit Centre,No,7,75392,-8871261.701,5421974.745
329,CC-PLP-189,Oscar Peterson (PLASP),Social Services,Child Care (PLASP),Child Care Centre,5120 Perennial Dr,,Mississauga,ON,L5M 7T9,905-890-1711,https://peelchildcare.cioc.ca/record/CDR0720,School-Based Centre,Yes,10,312501,-8875176.679,5395309.249
330,CC-PLP-030,Osprey Woods (PLASP),Social Services,Child Care (PLASP),Child Care Centre,6135 Lisgar Dr,,Mississauga,ON,L5N 7V2,905-890-1711,https://peelchildcare.cioc.ca/record/CDR0731,School-Based Centre,Yes,10,275452,-8879231.039,5397987.255
331,CC-PLP-122,Our Lady of Fatima (PLASP),Social Services,Child Care (PLASP),Child Care Centre,39 Sunset Blvd,,Brampton,ON,L6X 1X1,905-890-1711,https://peelchildcare.cioc.ca/record/CDR0765,School-Based Centre,No,1,162251,-8880832.928,5417328.619
332,CC-YMC-013,Our Lady of Good Voyage (YMCA),Social Services,Child Care (YMCA),Child Care Centre,5850 River Grove Ave,,Mississauga,ON,L5M 4W2,905-858-0052,https://peelchildcare.cioc.ca/record/CDR0508,School-Based Centre,Yes,6,10279,-8873426.783,5402471.533
333,CC-YMC-040,Our Lady of Lourdes (YMCA),Social Services,Child Care (YMCA),Child Care Centre,25 Mount Royal Cir,,Brampton,ON,L6P 1Y7,647-963-9716,https://peelchildcare.cioc.ca/record/CDR1027,School-Based Centre,Yes,10,289833,-8877448.618,5433241.708
334,CC-PLP-039,Our Lady of Mercy (PLASP),Social Services,Child Care (PLASP),Child Care Centre,5820 Glen Erin Dr,,Mississauga,ON,L5N 5J9,905-890-1711,https://peelchildcare.cioc.ca/record/CDR0700,School-Based Centre,Yes,9,275096,-8875879.279,5399071.18
335,CC-YMC-016,Our Lady of Peace (YMCA),Social Services,Child Care (YMCA),Child Care Centre,15 Fincham Ave,,Brampton,ON,L6X 3V2,905-455-6445,https://peelchildcare.cioc.ca/record/CDR0419,School-Based Centre,Yes,5,,-8881655.591,5415155.019
336,CC-FDC-022,Our Lady of Providence (Family Day Care),Social Services,Child Care (Family Day),Child Care Centre,35 Black Oak Dr,,Brampton,ON,L6R 1B9,416-922-3434,https://peelchildcare.cioc.ca/record/CDR0386,School-Based Centre,Yes,9,308240,-8878865.9,5425922.171
337,CC-PLP-190,Owenwood (PLASP),Social Services,Child Care (PLASP),Child Care Centre,930 Owenwood Dr,,Mississauga,ON,L5H 3J2,905-890-1711,https://peelchildcare.cioc.ca/record/CDR0663,School-Based Centre,Yes,2,43149,-8862136.918,5392349.844
338,CC-YMC-025,Palgrave (YMCA),Social Services,Child Care (YMCA),Child Care Centre,8962 Patterson Side Rd,,Caledon,ON,L0N 1P0,905-857-3531,https://peelchildcare.cioc.ca/record/CDR0602,School-Based Centre,Yes,4,323108,-8886892.794,5457106.915
339,CC-PLP-117,Parkway (PLASP),Social Services,Child Care (PLASP),Child Care Centre,24 Duncan Bull Dr,,Brampton,ON,L6W 1H4,905-890-1711,https://peelchildcare.cioc.ca/record/CDR0763,School-Based Centre,Yes,3,139628,-8876462.222,5415541.644
340,CC-OTH-190,Pathway Childcare Centre Inc.,Social Services,Child Care (Other),Child Care Centre,25 Ruth Ave,,Brampton,ON,L6Z 3X3,905-846-3939,https://peelchildcare.cioc.ca/record/CDR0420,Community-Based Non-Profit Centre,No,2,186405,-8881923.975,5422550.275
341,CC-PLP-106b,Pauline Vanier (PLASP),Social Services,Child Care (PLASP),Child Care Centre,56 Oaklea Blvd,,Brampton,ON,L4Z 3E9,905-890-1711,https://peelchildcare.cioc.ca/record/CDR0436,School-Based Centre,Yes,4,275543,-8875987.679,5410921.022
342,CC-PLP-106a,Pauline Vanier Early Learning Centre (PLASP),Social Services,Child Care (PLASP),Child Care Centre,56 Oaklea Blvd,,Brampton,ON,L4Z 3E9,905-890-1711,https://peelchildcare.cioc.ca/record/CDR0929,School-Based Centre,No,4,,-8876016.512,5410946.201
343,CC-OTH-309,Peel Montessori School,Social Services,Child Care (Other),Child Care Centre,964 Meadow Wood Road,,Mississauga,ON,L5J 2S6,905-823-6522,https://peelchildcare.cioc.ca/record/CDR0093,Community-Based For-Profit Centre,No,2,152238,-8863343.472,5391163.021
344,CC-FDC-005,Philip Pocock (Family Day Care),Social Services,Child Care (Family Day),Child Care Centre,4555 Tomken Rd,,Mississauga,ON,L4W 1J9,416-922-3434,https://peelchildcare.cioc.ca/record/CDR0442,School-Based Centre,No,3,289375,-8863945.901,5407604.307
345,CC-OTH-285,Philopateer Christian College,Social Services,Child Care (Other),Child Care Centre,6341 Mississauga Rd,,Mississauga,ON,L5N 1A5,905-814-5181,https://peelchildcare.cioc.ca/record/CDR1320,Community-Based Non-Profit Centre,No,11,11473,-8875437.778,5402999.283
346,CC-OTH-346,Play Time Playground,Social Services,Child Care (Other),Child Care Centre,20 Simona Dr,3 & 4,Caledon,ON,L7E 4K1,905-951-2727,https://peelchildcare.cioc.ca/record/CDR1704?Number=411,Community-Based For-Profit Centre,No,5,427023,-8872834.861,5442928.519
347,CC-OTH-352,Playdays Childcare Centre,Social Services,Child Care (Other),Child Care Centre,2255 Dundas St W,101B,Mississauga,ON,L5K 1R6,416-888-8847,https://peelchildcare.cioc.ca/record/CDR1720,Community-Based For-Profit Centre,No,8,127045,-8868977.789,5393476.489
348,CC-PLP-058,Plowman's Park (PLASP),Social Services,Child Care (PLASP),Child Care Centre,5940 Montevideo Rd,,Mississauga,ON,L5N 3J5,905-890-1711,https://peelchildcare.cioc.ca/record/CDR0725,School-Based Centre,Yes,9,111690,-8877494.947,5400956.639
349,CC-PLP-055b,Plum Tree Park (PLASP),Social Services,Child Care (PLASP),Child Care Centre,6855 Tenth Line W,,Mississauga,ON,L5N 5R2,905-890-1711,https://peelchildcare.cioc.ca/record/CDR0726,School-Based Centre,Yes,9,316831,-8880094.22,5400815.227
350,CC-PLP-055a,Plum Tree Park Early Learning Centre (PLASP),Social Services,Child Care (PLASP),Child Care Centre,6855 Tenth Line W,,Mississauga,ON,L5N 5R2,905-890-1711,https://peelchildcare.cioc.ca/record/CDR0530,School-Based Centre,No,9,,-8880102.422,5400877.585
351,CC-OTH-109,Preschool Petit Bateau (Rene Lamoureux),Social Services,Child Care (French),Child Care Centre,385 Meadows Blvd,,Mississauga,ON,L5N 1R3,905-279-1414,https://peelchildcare.cioc.ca/record/CDR0533,School-Based Centre,Yes,4,,-8864327.85,5404707.164
352,CC-PLP-131,Preschool Petit Bateau - Brampton (Sainte Jeanne d'Arc),Social Services,Child Care (French),Child Care Centre,25 Laurelcrest St,,Brampton,ON,L6S 4C4,905-455-3338,https://peelchildcare.cioc.ca/record/CDR0326,School-Based Centre,Yes,7,,-8876231.455,5420763.151
353,CC-OTH-107,Preschool Petit Bateau - Mississauga (Ange Gabriel),Social Services,Child Care (French),Child Care Centre,1830 Meadowvale Blvd,,Mississauga,ON,L5N 7H5,905-285-0257,https://peelchildcare.cioc.ca/record/CDR0337,School-Based Centre,Yes,11,,-8877665.163,5405953.93
354,CC-OTH-318,Preschool Petit Bateau Brampton-Caledon (Saint-Jean-Bosco),Social Services,Child Care (French),Child Care Centre,55 Abbotside Way,,Caledon,ON,L7C 4C3,905-495-2665,https://peelchildcare.cioc.ca/record/CDR1430,School-Based Centre,Yes,2,,-8885350.53,5426970.421
355,CC-OTH-033,Prince Edward Montessori School,Social Services,Child Care (Other),Child Care Centre,12 Peter St S,,Mississauga,ON,L5H 0A1,905-891-6912,https://peelchildcare.cioc.ca/record/CDR0575,Community-Based For-Profit Centre,No,1,342754,-8859747.421,5395771.439
356,CC-PLP-249,Pte. Buckam Singh Public School,Social Services,Child Care (PLASP),Child Care Centre,100 Martin Byrne Dr,,Brampton,ON,L6P0H7,,https://peel.cioc.ca/record/CDR1767?Number=0,School-Based Centre,No,10,423403,-8875351.31,5436625.061
357,CC-OTH-319,Puddle Jumpers Preschool Inc.,Social Services,Child Care (Other),Child Care Centre,12570 Kennedy Rd,5,Caledon,ON,L7C 3N5,416-564-1843,https://peelchildcare.cioc.ca/record/CDR1431,Community-Based For-Profit Centre,No,2,406075,-8886661.186,5427694.347
358,CC-PLP-114,Queen Street (PLASP),Social Services,Child Care (PLASP),Child Care Centre,20 Academic Dr,,Brampton,ON,L6Y 2C7,905-890-1711,https://peelchildcare.cioc.ca/record/CDR0833,School-Based Centre,Yes,4,390697,-8880235.292,5414616.222
359,CC-YMC-041,Queen of Heaven (YMCA),Social Services,Child Care (YMCA),Child Care Centre,1198 Alexandra Ave,,Mississauga,ON,L5E 2A5,647-299-5014,https://peelchildcare.cioc.ca/record/CDR0833,School-Based Centre,Yes,1,232881,-8857336.477,5400401.874
360,CC-PLP-031,Queenston Drive (PLASP),Social Services,Child Care (PLASP),Child Care Centre,3520 Queenston Dr,,Mississauga,ON,L5C 2G6,905-890-1711,https://peelchildcare.cioc.ca/record/CDR0653,School-Based Centre,Yes,6,130299,-8867950.608,5397867.256
361,CC-OTH-228,Rainbow Academy Learning and Child Care,Social Services,Child Care (Other),Child Care Centre,18 King St E,N1 2 4,Caledon,ON,L7E 1E8,905-857-3544,https://peelchildcare.cioc.ca/record/CAL0018,Community-Based For-Profit Centre,No,5,398504,-8876310.067,5446855.899
362,CC-OTH-267,Rainbow Academy Preschool House,Social Services,Child Care (Other),Child Care Centre,18 King St E,O1,Caledon,ON,L7E 1E8,905-857-3544,https://peelchildcare.cioc.ca/record/CAL0018,Community-Based For-Profit Centre,No,5,400163,-8876329.882,5446857.443
363,CC-OTH-187,Rainbow Village Day Care,Social Services,Child Care (Other),Child Care Centre,7314 Goreway Dr,,Mississauga,ON,L4T 2V1,905-677-3070,https://peelchildcare.cioc.ca/record/CDR0592,Community-Based For-Profit Centre,No,5,16184,-8865526.386,5422105.312
364,CC-FDC-014,Ray Lawson (Family Day Care),Social Services,Child Care (Family Day),Child Care Centre,725 Ray Lawson Blvd,,Brampton,ON,L6Y 0T8,416-922-3434,https://peelchildcare.cioc.ca/record/CDR1131,School-Based Centre,Yes,4,391662,-8877285.842,5410243.047
365,CC-PLP-192,Ray Underhill (PLASP),Social Services,Child Care (PLASP),Child Care Centre,32 Suburban Dr,,Mississauga,ON,L5N 1G6,905-890-1711,https://peelchildcare.cioc.ca/record/CDR0722,School-Based Centre,Yes,11,8317,-8874657.542,5402769.382
366,CC-PLP-212,Red Willow (PLASP),Social Services,Child Care (PLASP),Child Care Centre,80 Redwillow Rd,,Brampton,ON,L6P 2B1,905-890-1711,https://peelchildcare.cioc.ca/record/CDR0795,School-Based Centre,Yes,8,265688,-8872309.381,5430448.009
367,CC-PLP-113,Ridgeview (PLASP),Social Services,Child Care (PLASP),Child Care Centre,25 Brenda Ave,,Brampton,ON,L6Y 2A1,905-890-1711,https://peelchildcare.cioc.ca/record/CDR0766,School-Based Centre,Yes,3,145787,-8878434.708,5414903.487
368,CC-PLP-136,Ridgewood (PLASP),Social Services,Child Care (PLASP),Child Care Centre,7207 Cambrett Dr,,Mississauga,ON,L4T 2R3,905-890-1711,https://peelchildcare.cioc.ca/record/CDR1039,School-Based Centre,Yes,5,22523,-8865551.17,5421473.061
369,CC-PLP-022,Riverside (PLASP),Social Services,Child Care (PLASP),Child Care Centre,30 John St N,,Mississauga,ON,L5H 2E8,905-890-1711,https://peelchildcare.cioc.ca/record/CDR0841,School-Based Centre,Yes,1,44802,-8859941.109,5396099.627
370,CC-PLP-213,Roberta Bondar (PLASP),Social Services,Child Care (PLASP),Child Care Centre,30 Pantomine Blvd,,Brampton,ON,L6Y 5N2,905-890-1711,https://peelchildcare.cioc.ca/record/CDR0781,School-Based Centre,Yes,6,280013,-8878298.498,5410037.96
371,CC-OTH-283,Rocket Academy & Early Learning Centre,Social Services,Child Care (Other),Child Care Centre,3088 Mayfield Rd,9,Brampton,ON,L6Z 0E3,905-846-7311,https://peelchildcare.cioc.ca/record/CDR0433,Community-Based For-Profit Centre,No,2,298233,-8885832.288,5424744.736
372,CC-OTH-296,Ross Drive (Caring for Kids),Social Services,Child Care (Other),Child Care Centre,40 Ross Dr,,Brampton,ON,L6R 0W2,905-274-4362,https://peelchildcare.cioc.ca/record/CDR0124,School-Based Centre,Yes,9,,-8881547.529,5427002.626
373,CC-PLP-214,Rowntree (PLASP),Social Services,Child Care (PLASP),Child Care Centre,254 Queen Mary Dr,,Brampton,ON,L7A 3L6,905-890-1711,https://peelchildcare.cioc.ca/record/CDR0780,School-Based Centre,Yes,6,227169,-8885430.488,5420164.01
374,CC-OTH-303,Royal Academy Montessori Preschool,Social Services,Child Care (Other),Child Care Centre,965 Bovaird Dr W,5 6 7,Brampton,ON,L6X 5K7,416-200-7264,https://peelchildcare.cioc.ca/record/CDR1394,Community-Based For-Profit Centre,No,5,403799,-8884099.948,5417114.623
375,CC-OTH-054,Royal Montessori School,Social Services,Child Care (Other),Child Care Centre,2500 Mimosa Row,,Mississauga,ON,L5B 1P7,905-275-5887,https://peelchildcare.cioc.ca/record/CDR0484,Community-Based For-Profit Centre,No,7,126231,-8862646.431,5400158.549
376,CC-OTH-001,Royal Windsor Montessori and Daycare,Social Services,Child Care (Other),Child Care Centre,2157 Royal Windsor Dr,,Mississauga,ON,L5J 1K5,905-822-7575,https://peelchildcare.cioc.ca/record/CDR0574,Community-Based For-Profit Centre,No,2,,-8864775.893,5389808.941
377,CC-YMC-019,Russell Barber (YMCA),Social Services,Child Care (YMCA),Child Care Centre,255 North Park Dr,,Brampton,ON,L6S 6A5,905-457-1383,https://peelchildcare.cioc.ca/record/CDR0389,School-Based Centre,Yes,7,,-8877849.486,5422804.836
378,CC-FDC-027,Sacred Heart (Family Day Care),Social Services,Child Care (Family Day),Child Care Centre,24 Kerwood Pl,,Brampton,ON,L6Z 1Y1,416-922-3434,https://peelchildcare.cioc.ca/record/CDR1037,School-Based Centre,Yes,2,290792,-8883149.395,5424279.059
379,CC-OTH-110,Sadochok Ukrainian Nursery School Mississauga,Social Services,Child Care (Other),Child Care Centre,3625 Cawthra Rd,,Mississauga,ON,L5A 2Y4,905-276-4815,https://peelchildcare.cioc.ca/record/CDR0443,Community-Based For-Profit Centre,No,3,26633,-8862862.178,5404802.601
380,CC-OTH-022,Salvation Army - Erin Mills,Social Services,Child Care (Other),Child Care Centre,2460 The Collegeway,,Mississauga,ON,L5L 1V3,905-820-6500,https://peelchildcare.cioc.ca/record/CDR0477,Community-Based Non-Profit Centre,No,8,,-8870579.148,5393906.773
381,CC-OTH-102,Salvation Army - Mississauga Temple,Social Services,Child Care (Other),Child Care Centre,3173 Cawthra Rd,,Mississauga,ON,L5A 2X4,905-275-8430,https://peelchildcare.cioc.ca/record/CDR0455,Community-Based Non-Profit Centre,No,3,257266,-8861494.956,5403525.841
382,CC-OTH-268,Salvation Army - Noah's Ark,Social Services,Child Care (Other),Child Care Centre,9395 Bramalea Rd,,Brampton,ON,L6S 4B7,905-793-5610,https://peelchildcare.cioc.ca/record/CDR0385,Community-Based Non-Profit Centre,No,8,,-8875291.887,5424282.58
383,CC-PLP-095,San Lorenzo Ruiz (PLASP),Social Services,Child Care (PLASP),Child Care Centre,100 Barondale Dr,,Mississauga,ON,L4Z 3R1,905-890-1711,https://peelchildcare.cioc.ca/record/CDR0710,School-Based Centre,Yes,5,240542,-8868121.07,5406517.364
384,CC-PLP-021,Sawmill Valley (PLASP),Social Services,Child Care (PLASP),Child Care Centre,3625 Sawmill Valley Dr,,Mississauga,ON,L5L 2Z5,905-890-1711,https://peelchildcare.cioc.ca/record/CDR0654,School-Based Centre,Yes,8,26897,-8869925.384,5396318.213
385,CC-PLP-048,Settler's Green (PLASP),Social Services,Child Care (PLASP),Child Care Centre,5800 Montevideo Rd,,Mississauga,ON,L5N 2S1,905-890-1711,https://peelchildcare.cioc.ca/record/CDR0727,School-Based Centre,Yes,9,17302,-8877813.151,5400408.128
386,CC-PLP-064,Shelter Bay (PLASP),Social Services,Child Care (PLASP),Child Care Centre,6735 Shelter Bay Rd,,Mississauga,ON,L5N 2C5,905-890-1711,https://peelchildcare.cioc.ca/record/CDR0728,School-Based Centre,Yes,9,8849,-8879179.542,5401752.246
387,CC-OTH-270,Shepherd Montessori Private Catholic School,Social Services,Child Care (Other),Child Care Centre,2246 Camilla Rd,,Mississauga,ON,L5A 2J6,905-270-0011,https://peelchildcare.cioc.ca/record/CDR0490,Community-Based For-Profit Centre,No,7,46928,-8861285.772,5400125.777
388,CC-PLP-008,Sheridan Park (PLASP),Social Services,Child Care (PLASP),Child Care Centre,2280 Perran Dr,,Mississauga,ON,L5K 1M1,905-890-1711,https://peelchildcare.cioc.ca/record/CDR0655,School-Based Centre,Yes,2,219537,-8868370.479,5393001.752
389,CC-PLP-061,Sherwood Mills (PLASP),Social Services,Child Care (PLASP),Child Care Centre,1385 Sherwood Mills Blvd,,Mississauga,ON,L5V 2B8,905-890-1711,https://peelchildcare.cioc.ca/record/CDR0712,School-Based Centre,Yes,6,296618,-8870489.108,5401106.509
390,CC-OTH-271,Shining Stars Montessori School,Social Services,Child Care (Other),Child Care Centre,811 Bovaird Dr W,16,Brampton,ON,L6X 0T9,905-454-2273,https://peelchildcare.cioc.ca/record/CDR0401,Community-Based For-Profit Centre,No,5,335283,-8883824.848,5417252.988
391,CC-PLP-074,Silver Creek (PLASP),Social Services,Child Care (PLASP),Child Care Centre,460 Silver Creek Blvd,,Mississauga,ON,L5A 2B3,905-890-1711,https://peelchildcare.cioc.ca/record/CDR0920,School-Based Centre,Yes,4,85535,-8862137.858,5402682.498
392,CC-PLP-089,Silverthorn (PLASP),Social Services,Child Care (PLASP),Child Care Centre,3535 Cedar Creek Dr,,Mississauga,ON,L4Y 2Y4,905-890-1711,https://peelchildcare.cioc.ca/record/CDR0692,School-Based Centre,Yes,3,22765,-8862395.106,5404795.878
393,CC-OTH-277,Simply Smart Child Care,Social Services,Child Care (Other),Child Care Centre,6745 Century Ave,,Mississauga,ON,L5N 8C9,905-593-6780,https://peelchildcare.cioc.ca/record/CDR1053,Community-Based For-Profit Centre,No,9,8787,-8877188.42,5404214.015
394,CC-OTH-338,Simply Smart Child Care - Brampton,Social Services,Child Care (Other),Child Care Centre,25 Montpelier St,,Brampton,ON,L6Y 6B6,905-593-6780,https://peelchildcare.cioc.ca/record/CDR1620,Community-Based For-Profit Centre,No,6,449951,-8881644.262,5408816.613
395,CC-FDC-026,Sir Isaac Brock (Family Day Care),Social Services,Child Care (Family Day),Child Care Centre,45 Meltwater Cres,,Brampton,ON,L6P 2V7,905-890-1711,https://peelchildcare.cioc.ca/record/CDR1292,School-Based Centre,Yes,10,307748,-8869438.296,5433819.563
396,CC-YMC-044,Sir Winston Churchill (YMCA),Social Services,Child Care (YMCA),Child Care Centre,89 Ardglen Dr,,Brampton,ON,L6W 1V1,905-943-9622 ext 750,https://peelchildcare.cioc.ca/record/CDR1093,School-Based Centre,Yes,3,158392,-8877596.656,5417444.408
397,CC-OTH-137,Small Wunders Child Care,Social Services,Child Care (Other),Child Care Centre,1150 Eglinton Ave E,,Mississauga,ON,L4W 2M6,905-290-0547,https://peelchildcare.cioc.ca/record/CDR0512,Community-Based For-Profit Centre,No,3,,-8863864.902,5408437.163
398,CC-PLP-149,Somerset Drive (PLASP),Social Services,Child Care (PLASP),Child Care Centre,50 Somerset Dr,,Brampton,ON,L6Z 1C7,905-890-1711,https://peelchildcare.cioc.ca/record/CDR0768,School-Based Centre,Yes,2,266296,-8883664.136,5423591.05
399,CC-OTH-342,Songbirds Montessori - Ellen St,Social Services,Child Care (Other),Child Care Centre,8 Ellen St,,Brampton,ON,L6V 1J6,905-453-0229,https://peelchildcare.cioc.ca/record/CDR1645,Community-Based For-Profit Centre,No,1,164462,-8879383.443,5417606.27
400,CC-OTH-362,Songbirds Montessori Academy,Social Services,Child Care (Other),Child Care Centre,10 Rivermont Rd,A1,Brampton,ON,L6Y6G7,905-450-8505,https://peel.cioc.ca/record/CDR1787?Number=0,Community-Based For-Profit Centre,No,6,427397,-8881320.261,5407194.767
401,CC-OTH-291,Songbirds Montessori School - Brampton West,Social Services,Child Care (Other),Child Care Centre,9705 James Potter Rd,3-Jan,Brampton,ON,L6X 0G9,905-453-5445,https://peelchildcare.cioc.ca/record/CDR0425,Community-Based For-Profit Centre,No,5,,-8883976.765,5415343.855
402,CC-OTH-181,Songbirds Montessori School - Fisherman Drive,Social Services,Child Care (Other),Child Care Centre,2 Fisherman Dr,11A,Brampton,ON,L7A 1B5,905-846-4044,https://peelchildcare.cioc.ca/record/CDR1365,Community-Based For-Profit Centre,No,2,319042,-8883377.324,5421478.121
403,CC-OTH-155,Songbirds Montessori School Inc.,Social Services,Child Care (Other),Child Care Centre,49 Wellington St,,Brampton,ON,L6V 1K8,905-451-7757,https://peelchildcare.cioc.ca/record/CDR0400,Community-Based For-Profit Centre,No,3,147052,-8878974.062,5416315.027
404,CC-FDC-016,SouthFields Village (Family Day Care),Social Services,Child Care (Family Day),Child Care Centre,110 Learmont Ave,,Caledon,ON,L7C 3R1,416-922-3434,https://peelchildcare.cioc.ca/record/CDR1036,School-Based Centre,Yes,2,400217,-8886051.309,5428058.733
405,CC-PLP-236,Springbrook (PLASP),Social Services,Child Care (PLASP),Child Care Centre,145 Jordensen Dr,,Brampton,ON,L6X 0S1,905-890-1711 ext115,https://peelchildcare.cioc.ca/record/CDR1395,School-Based Centre,Yes,5,399969,-8882655.587,5413916.905
406,CC-PLP-164,Springdale (PLASP),Social Services,Child Care (PLASP),Child Care Centre,100 Dewside Dr,,Brampton,ON,L6T 2C9,905-890-1711,https://peelchildcare.cioc.ca/record/CDR0774,School-Based Centre,Yes,9,245269,-8879570.778,5427395.514
407,CC-OTH-205,Springdale Learning Centre (Robert J. Lee Public School),Social Services,Child Care (Other),Child Care Centre,160 Mountainash Rd,,Brampton,ON,L6R 1J1,905-790-6958,https://peelchildcare.cioc.ca/record/CDR0843,School-Based Centre,Yes,10,75696,-8876084.144,5428977.438
408,CC-OTH-269,Springdale Learning Centre (Shaw Public School),Social Services,Child Care (Other),Child Care Centre,10 Father Tobin Rd,,Brampton,ON,L6R 3K2,905-790-6958,https://peelchildcare.cioc.ca/record/CDR0848,School-Based Centre,Yes,10,279023,-8877894.605,5430727.46
409,CC-PLP-026,Springfield (PLASP),Social Services,Child Care (PLASP),Child Care Centre,3251 The Credit Woodlands,,Mississauga,ON,L5C 2J7,905-890-1711,https://peelchildcare.cioc.ca/record/CDR0857,School-Based Centre,Yes,6,312924,-8867064.279,5397154.627
410,CC-PLP-145b,St. Agnes (PLASP),Social Services,Child Care (PLASP),Child Care Centre,103 Richvale Dr S,,Brampton,ON,L6Z 1C6,905-890-1711,https://peelchildcare.cioc.ca/record/CDR0748,School-Based Centre,Yes,2,170247,-8881159.54,5422932.969
411,CC-PLP-145a,St. Agnes Early Learning Centre (PLASP),Social Services,Child Care (PLASP),Child Care Centre,103 Richvale Dr S,,Brampton,ON,L6Z 1C6,905-890-1711,https://peelchildcare.cioc.ca/record/CDR0435,School-Based Centre,No,2,,-8881147.187,5422964.896
412,CC-YMC-045,St. Aidan (YMCA),Social Services,Child Care (YMCA),Child Care Centre,34 Buick Blvd,,Brampton,ON,L7A 3B9,647-448-9400,https://peelchildcare.cioc.ca/record/CDR0734,School-Based Centre,Yes,6,305373,-8887447.132,5418589.391
413,CC-PLP-051,St. Albert of Jerusalem (PLASP),Social Services,Child Care (PLASP),Child Care Centre,7185 Rosehurst Dr,,Mississauga,ON,L5N 7G6,905-890-1711,https://peelchildcare.cioc.ca/record/CDR0729,School-Based Centre,Yes,10,270757,-8882084.882,5400765.672
414,CC-PLP-248,St. Albert of Jerusalem (PLASP),Social Services,Child Care (PLASP),Child Care Centre,7185 Rosehurst Dr,,Mississauga,ON,L5N 7G6,1-888-739-4102,https://peelchildcare.cioc.ca/record/CDR0729?Number=131,School-Based Centre,No,,228869,-8882084.882,5400765.675
415,CC-PLP-097,St. Alfred (PLASP),Social Services,Child Care (PLASP),Child Care Centre,3341 Havenwood Dr,,Mississauga,ON,L4X 2M2,905-890-1711,https://peelchildcare.cioc.ca/record/CDR0693,School-Based Centre,Yes,3,25988,-8859914.189,5406657.031
416,CC-PLP-238,St. Alphonsa (PLASP),Social Services,Child Care (PLASP),Child Care Centre,60 Olivia Marie Rd,,Brampton,ON,L6Y 0M4,1-888-739-4102,https://peelchildcare.cioc.ca/record/CDR1428,School-Based Centre,Yes,4,,-8880173.39,5409189.329
417,CC-PLP-224,St. Andre Bessette (PLASP),Social Services,Child Care (PLASP),Child Care Centre,25 Riverstone Dr,,Brampton,ON,L6Y 0T7,905-454-1477,https://peelchildcare.cioc.ca/record/CDR1277,School-Based Centre,Yes,8,317638,-8869305.169,5429221.782
418,CC-YMC-046,St. Angela Merici (YMCA),Social Services,Child Care (YMCA),Child Care Centre,83 Edenbrook Hill Dr,,Brampton,ON,L7A 2N7,416-358-2334,https://peelchildcare.cioc.ca/record/CDR0733,School-Based Centre,No,6,268347,-8884473.489,5418454.848
419,CC-PLP-215,St. Anne (PLASP),Social Services,Child Care (PLASP),Child Care Centre,124 Vodden St E,,Brampton,ON,L6V 1M5,905-890-1711,https://peelchildcare.cioc.ca/record/CDR1046,School-Based Centre,No,1,172140,-8879232.622,5419069.677
420,CC-PLP-158,St. Anthony (PLASP),Social Services,Child Care (PLASP),Child Care Centre,950 North Park Dr,,Brampton,ON,L4Z 3E9,905-890-1711,https://peelchildcare.cioc.ca/record/CDR0723,School-Based Centre,Yes,7,65849,-8876861.791,5424725.404
421,CC-PLP-099b,St. Barbara (PLASP),Social Services,Child Care (PLASP),Child Care Centre,1455 Samuelson Cir,,Mississauga,ON,L5N 7Z2,905-890-1711,https://peelchildcare.cioc.ca/record/CDR0711,School-Based Centre,Yes,11,353065,-8877314.589,5407433.8
422,CC-PLP-099a,St. Barbara Early Learning Centre (PLASP),Social Services,Child Care (PLASP),Child Care Centre,1455 Samuelson Cir,,Mississauga,ON,L5N 7Z2,905-890-1711,https://peelchildcare.cioc.ca/record/CDR0564,School-Based Centre,No,11,,-8877305.093,5407458.385
423,CC-PLP-101,St. Basil (PLASP),Social Services,Child Care (PLASP),Child Care Centre,4235 Golden Orchard Dr,,Mississauga,ON,L4W 3G1,905-890-1711,https://peelchildcare.cioc.ca/record/CDR0670,School-Based Centre,Yes,3,24324,-8862474.981,5407366.852
424,CC-FDC-018,St. Bernadette Child Care Centre (Family Day Care),Social Services,Child Care (Family Day),Child Care Centre,1060 White Clover Way,,Mississauga,ON,L5V 1G7,416-922-3434,https://peelchildcare.cioc.ca/record/CDR0502,School-Based Centre,No,6,,-8869206.874,5400950.094
425,CC-YMC-047,St. Bernard of Clairvaux (YMCA),Social Services,Child Care (YMCA),Child Care Centre,3345 Escada Dr,,Mississauga,ON,L5M 7V5,647-267-2400,https://peelchildcare.cioc.ca/record/CDR0914,School-Based Centre,Yes,10,308546,-8876118.442,5395701.424
426,CC-PLP-194,St. Bonaventure (PLASP),Social Services,Child Care (PLASP),Child Care Centre,35 McCrimmon Dr,,Brampton,ON,L7A 2Z5,1-888-739-4102,https://peelchildcare.cioc.ca/record/CDR0782,School-Based Centre,Yes,6,279022,-8886545.746,5417163.726
427,CC-PLP-109,St. Brigid (PLASP),Social Services,Child Care (PLASP),Child Care Centre,81 Torrance Woods,,Brampton,ON,L6Y 2X4,905-890-1711,https://peelchildcare.cioc.ca/record/CDR0918,School-Based Centre,Yes,4,170458,-8878806.883,5412731.739
428,CC-YMC-048,St. Catherine of Siena (YMCA),Social Services,Child Care (YMCA),Child Care Centre,2350 Hurontario St,,Mississauga,ON,L5B 1N1,647-924-0240,https://peelchildcare.cioc.ca/record/CDR0865,School-Based Centre,Yes,7,199173,-8862247.141,5399757.511
429,CC-PLP-127,St. Cecilia (PLASP),Social Services,Child Care (PLASP),Child Care Centre,10 Brickyard Way,,Brampton,ON,L6V 4L5,905-890-1711,https://peelchildcare.cioc.ca/record/CDR0746?Number=191,School-Based Centre,Yes,1,297576,-8881175.062,5419817.215
430,CC-PLP-085,St. Charles Garnier (PLASP),Social Services,Child Care (PLASP),Child Care Centre,4233 Central Pky E,,Mississauga,ON,L4Z 1M7,905-890-1711,https://peelchildcare.cioc.ca/record/CDR0671,School-Based Centre,Yes,4,240443,-8864617.59,5404614.615
431,CC-YMC-001,St. Christopher (YMCA),Social Services,Child Care (YMCA),Child Care Centre,1195 Clarkson Rd N,,Mississauga,ON,L5J 2W1,647-203-3900,https://peelchildcare.cioc.ca/record/CDR0664,School-Based Centre,Yes,2,337579,-8864015.837,5391778.76
432,CC-PLP-012,St. Clare (PLASP),Social Services,Child Care (PLASP),Child Care Centre,4140 Glen Erin Dr,,Mississauga,ON,L5L 2B1,905-890-1711,https://peelchildcare.cioc.ca/record/CDR0641,School-Based Centre,Yes,8,28156,-8871784.297,5395392.803
433,CC-YMC-063,St. Cornelius (YMCA),Social Services,Child Care (YMCA),Child Care Centre,16066 Innis Lake Rd,,Caledon,ON,L7C 2Z2,519-942-3290,https://peelchildcare.cioc.ca/record/CAL0434,School-Based Centre,Yes,3,92392,-8889690.988,5446825.859
434,CC-PLP-242,St. Daniel Camboni (PLASP),Social Services,Child Care (PLASP),Child Care Centre,120 Veterans Dr,,Brampton,ON,L7A 0B5,1-888-739-4102,https://peelchildcare.cioc.ca/record/CDR1481,School-Based Centre,Yes,6,442357,-8887818.023,5416052.267
435,CC-PLP-045,St. David of Wales (PLASP),Social Services,Child Care (PLASP),Child Care Centre,4200 Beacon Lane,,Mississauga,ON,L5C 3V0,905-890-1711,https://peelchildcare.cioc.ca/record/CDR0642,School-Based Centre,Yes,6,28336,-8868422.085,5399910.434
436,CC-PLP-195,St. Dominic (PLASP),Social Services,Child Care (PLASP),Child Care Centre,515 Hartsdale Ave,,Mississauga,ON,L5G 2G7,905-890-1711,https://peelchildcare.cioc.ca/record/CDR1044,School-Based Centre,Yes,1,136134,-8858787.253,5399711.807
437,CC-PLP-036b,St. Edith Stein (PLASP),Social Services,Child Care (PLASP),Child Care Centre,6234 Osprey Blvd,,Mississauga,ON,L5N 5V5,905-890-1711,https://peelchildcare.cioc.ca/record/CDR0528,School-Based Centre,Yes,10,271173,-8878737.016,5398621.773
438,CC-PLP-036a,St. Edith Stein Early Learning Centre (PLASP),Social Services,Child Care (PLASP),Child Care Centre,6234 Osprey Blvd,,Mississauga,ON,L5N 5V5,905-890-1711,https://peelchildcare.cioc.ca/record/CDR0937,School-Based Centre,No,10,,-8878706.199,5398609.415
439,CC-PLP-079,St. Edmund (PLASP),Social Services,Child Care (PLASP),Child Care Centre,1250 Melton Dr,,Mississauga,ON,L4Y 1L5,905-890-1711,https://peelchildcare.cioc.ca/record/CDR0672,School-Based Centre,Yes,1,22541,-8858464.239,5403552.341
440,CC-PLP-047,St. Elizabeth Seton (PLASP),Social Services,Child Care (PLASP),Child Care Centre,6133 Glen Erin Dr,,Mississauga,ON,L5N 2T7,905-890-1711,https://peelchildcare.cioc.ca/record/CDR0667,School-Based Centre,Yes,9,1629,-8876721.447,5400316.973
441,CC-PLP-247,St. Evan (PLASP),Social Services,Child Care (PLASP),Child Care Centre,500 Dougall Ave,,Caledon,ON,L7C 4C5,905-890-1711,https://peelchildcare.cioc.ca/record/CDR1654,School-Based Centre,Yes,2,423155,-8887238.56,5427201.953
442,CC-PLP-024,St. Faustina (PLASP),Social Services,Child Care (PLASP),Child Care Centre,3420 McDowell Dr,,Mississauga,ON,L5M 6R7,905-890-1711,https://peelchildcare.cioc.ca/record/CDR0715,School-Based Centre,Yes,10,275689,-8877804.895,5397120.354
443,CC-FDC-017,St. Francis Xavier (Family Day Care),Social Services,Child Care (Family Day),Child Care Centre,50 Bristol Rd W,,Mississauga,ON,L5R 3K3,416-922-3434,https://peelchildcare.cioc.ca/record/CDR0534,School-Based Centre,Yes,5,259249,-8868193.358,5405715.117
444,CC-PLP-115,St. Francis Xavier (PLASP),Social Services,Child Care (PLASP),Child Care Centre,111 Bartley Bull Pky,,Brampton,ON,L6W 2J8,905-890-1711,https://peelchildcare.cioc.ca/record/CDR0919,School-Based Centre,Yes,3,48102,-8876425.64,5415267.109
445,CC-PLP-006,St. Francis of Assisi (PLASP),Social Services,Child Care (PLASP),Child Care Centre,2480 Thorn Lodge Dr,,Mississauga,ON,L5K 1K5,905-890-1711,https://peelchildcare.cioc.ca/record/CDR0643,School-Based Centre,Yes,2,37715,-8869049,5392501.583
446,CC-PLP-197,St. Gerard (PLASP),Social Services,Child Care (PLASP),Child Care Centre,1300 McBride Ave,,Mississauga,ON,L5C 1M8,905-890-1711,https://peelchildcare.cioc.ca/record/CDR1042,School-Based Centre,Yes,6,295791,-8867338.835,5397447.799
447,CC-PLP-090b,St. Gregory (PLASP),Social Services,Child Care (PLASP),Child Care Centre,1075 Swinbourne Dr,,Mississauga,ON,L5V 1B9,905-890-1711,https://peelchildcare.cioc.ca/record/CDR0698,School-Based Centre,Yes,11,278171,-8873009.322,5405165.337
448,CC-PLP-090a,St. Gregory Early Learning Centre (PLASP),Social Services,Child Care (PLASP),Child Care Centre,1075 Swinbourne Dr,,Mississauga,ON,L5V 1B9,905-890-1711,https://peelchildcare.cioc.ca/record/CDR0565,School-Based Centre,No,11,,-8873013.032,5405220.335
449,CC-PLP-235,St. Helen (PLASP),Social Services,Child Care (PLASP),Child Care Centre,1325 Bodley Rd,,Mississauga,ON,L5J 3X1,1-888-739-4102,https://peelchildcare.cioc.ca/record/CDR1364,School-Based Centre,Yes,2,139208,-8866691.882,5389290.674
450,CC-FDC-001,St. Herbert (Family Day Care),Social Services,Child Care (Family Day),Child Care Centre,5180 Fallingbrook Dr,,Mississauga,ON,L5V 2C6,416-922-3434,https://peelchildcare.cioc.ca/record/CDR0541,School-Based Centre,Yes,6,,-8870459.046,5401585.139
451,CC-YMC-015,St. Hilary (YMCA),Social Services,Child Care (YMCA),Child Care Centre,5070 Fairwind Dr,,Mississauga,ON,L5R 2N4,905-568-1549,https://peelchildcare.cioc.ca/record/CDR0535,School-Based Centre,Yes,5,,-8867827.012,5404358.878
452,CC-OTH-046,St. Hilary's Day Care Centre,Social Services,Child Care (Other),Child Care Centre,2055 Hurontario St,,Mississauga,ON,L5A 2E6,905-279-2273,https://peelchildcare.cioc.ca/record/CDR0456,Community-Based Non-Profit Centre,No,7,,-8861083.097,5399127.826
453,CC-PLP-156,St. Isaac Jogues (PLASP),Social Services,Child Care (PLASP),Child Care Centre,300 Great Lakes Dr,,Brampton,ON,L6R 2X7,905-890-1711,https://peelchildcare.cioc.ca/record/CDR0770,School-Based Centre,Yes,9,288171,-8879919.567,5424665.168
454,CC-PLP-245,St. Jacinta Marto (PLASP),Social Services,Child Care (PLASP),Child Care Centre,40 Fallowfield Rd,,Brampton,ON,L6X 0W5,647-484-4372,https://peelchildcare.cioc.ca/record/CDR1621,School-Based Centre,Yes,5,451861,-8883120.594,5412501.62
455,CC-YMC-064,St. James (YMCA),Social Services,Child Care (YMCA),Child Care Centre,98 Wanita Rd,,Mississauga,ON,L6Y 0T7,905-454-1477,https://peelchildcare.cioc.ca/record/CDR1290,School-Based Centre,Yes,1,86627,-8857876.468,5397997.638
456,CC-PLP-155,St. Jean Brebeuf (PLASP),Social Services,Child Care (PLASP),Child Care Centre,63 Glenforest Rd,,Brampton,ON,L6S 4E1,905-890-1711,https://peelchildcare.cioc.ca/record/CDR0737,School-Based Centre,Yes,8,67035,-8874912.107,5424405.553
457,CC-PLP-225,St. Jean-Marie Vianney (PLASP),Social Services,Child Care (PLASP),Child Care Centre,75 Jordensen Dr,,Brampton,ON,L6P 3V8,905-791-8408,https://peelchildcare.cioc.ca/record/CDR1276,School-Based Centre,Yes,5,350136,-8883397.805,5414461.046
458,CC-PLP-032,St. Jerome (PLASP),Social Services,Child Care (PLASP),Child Care Centre,790 Paisley Blvd W,,Mississauga,ON,L5C 3P5,905-890-1711,https://peelchildcare.cioc.ca/record/CDR0644,School-Based Centre,Yes,7,36394,-8864436.608,5397497.436
459,CC-PLP-132,St. Joachim (PLASP),Social Services,Child Care (PLASP),Child Care Centre,435 Rutherford Rd N,,Brampton,ON,L6V 3V9,905-890-1711,https://peelchildcare.cioc.ca/record/CDR0855,School-Based Centre,Yes,1,235577,-8879608.343,5421177.639
460,CC-PLP-161,St. John Bosco (PLASP),Social Services,Child Care (PLASP),Child Care Centre,1025 North Park Dr,,Brampton,ON,L6S 4E1,905-890-1711,https://peelchildcare.cioc.ca/record/CDR0738,School-Based Centre,Yes,8,184470,-8875862.345,5425624.588
461,CC-PLP-130,St. John Fisher (PLASP),Social Services,Child Care (PLASP),Child Care Centre,330 Balmoral Dr,,Brampton,ON,L6T 1V6,905-890-1711,https://peelchildcare.cioc.ca/record/CDR0739,School-Based Centre,Yes,7,60657,-8873391.987,5420868.364
462,CC-PLP-140,St. John Henry Newman C.S. (PLASP),Social Services,Child Care (PLASP),Child Care Centre,698 Balmoral Dr,,Brampton,ON,L6T 1Z1,905-890-1711,https://peelchildcare.cioc.ca/record/CDR0742,School-Based Centre,Yes,7,58444,-8872119.679,5422479.316
463,CC-PLP-172,St. John Paul II (PLASP),Social Services,Child Care (PLASP),Child Care Centre,9094 Bolton Heights Rd,,Caledon,ON,L7E 5R8,905-890-1711,https://peelchildcare.cioc.ca/record/CDR0604,School-Based Centre,Yes,6,197779,-8877433.961,5448448.547
464,CC-PLP-174,St. John XXIII (PLASP),Social Services,Child Care (PLASP),Child Care Centre,915 McBride Ave,,Mississauga,ON,L5C 1M1,905-890-1711,https://peelchildcare.cioc.ca/record/CDR1047,School-Based Centre,No,6,218970,-8866029.472,5398463.673
465,CC-PLP-049,St. John of the Cross (PLASP),Social Services,Child Care (PLASP),Child Care Centre,3180 Aquitaine Ave,,Mississauga,ON,L5N 3S5,905-890-1711,https://peelchildcare.cioc.ca/record/CDR0668,School-Based Centre,Yes,9,107188,-8879751.379,5400565.516
466,CC-YMC-022,St. John the Baptist (YMCA),Social Services,Child Care (YMCA),Child Care Centre,299 Landsbridge St,,Caledon,ON,L7E 2K4,647-203-3800,https://peelchildcare.cioc.ca/record/CDR0605,School-Based Centre,Yes,5,215441,-8873607.787,5445505.15
467,CC-PLP-057,St. Joseph (PLASP),Social Services,Child Care (PLASP),Child Care Centre,249 Church St,,Mississauga,ON,L5M 1N1,905-890-1711,https://peelchildcare.cioc.ca/record/CDR1040,School-Based Centre,Yes,11,183493,-8873273.694,5400897.735
468,CC-YMC-077,St. Joseph (YMCA),Social Services,Child Care (YMCA),Child Care Centre,8 Parkway Ave,,Brampton,ON,L6X 2G4,905-451-1400 ext 483,https://peelchildcare.cioc.ca/record/CDR1351?Number=50,School-Based Centre,Yes,5,57612,-8880945.05,5415561.173
469,CC-PLP-198,St. Josephine Bakhita (PLASP),Social Services,Child Care (PLASP),Child Care Centre,430 Van Kirk Dr,,Brampton,ON,L7A 0J2,905-890-1711,https://peelchildcare.cioc.ca/record/CDR0783,School-Based Centre,Yes,2,299385,-8886149.601,5422317.776
470,CC-PLP-093b,St. Jude (PLASP),Social Services,Child Care (PLASP),Child Care Centre,175 Nahani Way,,Mississauga,ON,L4Z 3J6,905-890-1711,https://peelchildcare.cioc.ca/record/CDR0562,School-Based Centre,Yes,5,112169,-8866900.685,5405824.103
471,CC-PLP-093a,St. Jude Early Learning Centre (PLASP),Social Services,Child Care (PLASP),Child Care Centre,175 Nahani Way,,Mississauga,ON,L4Z 3J6,905-890-1711,https://peelchildcare.cioc.ca/record/CDR0979,School-Based Centre,No,5,,-8866857.838,5405821.574
472,CC-PLP-098,St. Julia (PLASP),Social Services,Child Care (PLASP),Child Care Centre,6770 Historic Trail,,Mississauga,ON,L5W 1J3,905-890-1711,https://peelchildcare.cioc.ca/record/CDR0718,School-Based Centre,Yes,11,254090,-8874800.562,5406843.263
473,CC-PLP-110b,St. Kevin (PLASP),Social Services,Child Care (PLASP),Child Care Centre,103 Malta Ave,,Brampton,ON,L6Y 4C8,905-890-1711,https://peelchildcare.cioc.ca/record/CDR0974,School-Based Centre,Yes,4,55533,-8875662.063,5413071.863
474,CC-PLP-110a,St. Kevin Early Learning Centre (PLASP),Social Services,Child Care (PLASP),Child Care Centre,103 Malta Ave,,Brampton,ON,L6Y 4C8,905-890-1711,https://peelchildcare.cioc.ca/record/CDR0437,School-Based Centre,No,4,,-8875698.095,5413104.491
475,CC-YMC-049,St. Leonard (YMCA),Social Services,Child Care (YMCA),Child Care Centre,30 Summer Valley Dr,,Brampton,ON,L6Z4V6,1-866-317-6251 ext 750,https://peelchildcare.cioc.ca/record/CDR0983,School-Based Centre,Yes,2,80078,-8886047.996,5424836.679
476,CC-YMC-050,St. Louis (YMCA),Social Services,Child Care (YMCA),Child Care Centre,1450 Lewisham Dr,,Mississauga,ON,L5J 3R3,1-647-298-0752,https://peelchildcare.cioc.ca/record/CDR0624,School-Based Centre,Yes,2,135229,-8866135.049,5390874.975
477,CC-PLP-216,St. Lucy (PLASP),Social Services,Child Care (PLASP),Child Care Centre,25 Kanata Rd,,Brampton,ON,L7A 3R2,905-890-1711,https://peelchildcare.cioc.ca/record/CDR0785,School-Based Centre,Yes,6,265668,-8885650.173,5420389.176
478,CC-PLP-015,St. Luke (PLASP),Social Services,Child Care (PLASP),Child Care Centre,1280 Cobalt St,,Mississauga,ON,L5H 4L8,905-890-1711,https://peelchildcare.cioc.ca/record/CDR0659,School-Based Centre,Yes,2,285479,-8861627.887,5395587.669
479,CC-PLP-011,St. Margaret of Scotland (PLASP),Social Services,Child Care (PLASP),Child Care Centre,2266 Council Ring Rd,,Mississauga,ON,L5L 1C1,905-890-1711,https://peelchildcare.cioc.ca/record/CDR0646,School-Based Centre,Yes,8,30292,-8869507.172,5393975.754
480,CC-PLP-147,St. Margarite Bourgeoys (PLASP),Social Services,Child Care (PLASP),Child Care Centre,550 North Park Dr,,Brampton,ON,L6S 4J8,905-890-1711,https://peelchildcare.cioc.ca/record/CDR0740,School-Based Centre,Yes,7,175755,-8878155.972,5423391.538
481,CC-FDC-009,St. Maria Goretti Child Care Centre (Family Day Care),Social Services,Child Care (Family Day),Child Care Centre,121 Royal Orchard Dr,,Brampton,ON,L6X 4K9,416-922-3434,https://peelchildcare.cioc.ca/record/CDR0406,School-Based Centre,No,5,169176,-8882070.137,5418573.324
482,CC-PLP-023,St. Mark (PLASP),Social Services,Child Care (PLASP),Child Care Centre,3675 Sawmill Valley Dr,,Mississauga,ON,L5L 2Z5,905-890-1711,https://peelchildcare.cioc.ca/record/CDR0645,School-Based Centre,Yes,8,106606,-8870030.679,5396383.75
483,CC-YMC-051,St. Mary (YMCA),Social Services,Child Care (YMCA),Child Care Centre,66 Main St S,,Brampton,ON,L6W 2C6,647-924-0130,https://peelchildcare.cioc.ca/record/CDR1092,School-Based Centre,Yes,3,223312,-8878099.887,5416613.42
484,CC-PLP-077b,St. Matthew (PLASP),Social Services,Child Care (PLASP),Child Care Centre,280 Kingsbridge Garden Cir,,Mississauga,ON,L5R 1L3,905-890-1711,https://peelchildcare.cioc.ca/record/CDR0563,School-Based Centre,Yes,4,291132,-8867256.113,5403675.125
485,CC-PLP-077a,St. Matthew Early Learning Centre (PLASP),Social Services,Child Care (PLASP),Child Care Centre,280 Kingsbridge Garden Cir,,Mississauga,ON,L5R 1L3,905-890-1711,https://peelchildcare.cioc.ca/record/CDR0935,School-Based Centre,No,4,,-8867224.604,5403648.979
486,CC-PLP-112,St. Monica (PLASP),Social Services,Child Care (PLASP),Child Care Centre,60 Sterritt Dr,,Brampton,ON,L6Y 5B6,905-890-1711,https://peelchildcare.cioc.ca/record/CDR0856,School-Based Centre,Yes,4,51375,-8880147.613,5413700.259
487,CC-YMC-021,St. Nicholas (YMCA),Social Services,Child Care (YMCA),Child Care Centre,120 Harvest Moon Dr,,Caledon,ON,L7E 2W1,416-819-8262,https://peelchildcare.cioc.ca/record/CDR0606,School-Based Centre,Yes,5,303130,-8878700.524,5445555.325
488,CC-PLP-200,St. Patrick (PLASP),Social Services,Child Care (PLASP),Child Care Centre,11948 The Gore Rd,,Brampton,ON,L6P 0A2,905-890-1711,https://peelchildcare.cioc.ca/record/CDR1011,School-Based Centre,Yes,10,215718,-8875156.464,5437266.103
489,CC-PLP-054,St. Philip (PLASP),Social Services,Child Care (PLASP),Child Care Centre,345 Fairview Rd W,,Mississauga,ON,L5B 3W5,905-890-1711,https://peelchildcare.cioc.ca/record/CDR0673,School-Based Centre,Yes,7,268315,-8864659.736,5400514.657
490,CC-PLP-088,St. Pio of Pietrelcina (PLASP),Social Services,Child Care (PLASP),Child Care Centre,4765 Huron Heights Dr,,Mississauga,ON,L4Z 4G9,905-890-1711,https://peelchildcare.cioc.ca/record/CDR0696,School-Based Centre,Yes,4,277168,-8865804.22,5404982.486
491,CC-PLP-201,St. Raphael (PLASP),Social Services,Child Care (PLASP),Child Care Centre,3470 Clara Dr,,Mississauga,ON,L4T 2C7,905-890-1711,https://peelchildcare.cioc.ca/record/CDR0978,School-Based Centre,Yes,5,,-8866152.672,5422409.664
492,CC-FDC-019,St. Raymond (Family Day Care),Social Services,Child Care (Family Day),Child Care Centre,5735 Whitehorn Ave,,Mississauga,ON,L5V 2A9,416-922-3434,https://peelchildcare.cioc.ca/record/CDR0859,School-Based Centre,Yes,6,267612,-8872345.39,5402974.311
493,CC-PLP-071,St. Richard (PLASP),Social Services,Child Care (PLASP),Child Care Centre,7270 Copenhagen Rd,,Mississauga,ON,L5N 2C3,905-890-1711,https://peelchildcare.cioc.ca/record/CDR0702,School-Based Centre,Yes,9,9306,-8880046.46,5402743.03
494,CC-PLP-157,St. Rita (PLASP),Social Services,Child Care (PLASP),Child Care Centre,30 Summer Valley Dr,,Brampton,ON,L6V 2V7,905-890-1711,https://peelchildcare.cioc.ca/record/CDR0777,School-Based Centre,Yes,2,80078,-8886038.487,5424829.83
495,CC-YMC-052,St. Rose of Lima (YMCA),Social Services,Child Care (YMCA),Child Care Centre,4590 The Gallops,,Mississauga,ON,L5M 2W4,647-963-9582,https://peelchildcare.cioc.ca/record/CDR0981,School-Based Centre,Yes,8,289148,-8871973.29,5397728.632
496,CC-PLP-202,St. Sebastian (PLASP),Social Services,Child Care (PLASP),Child Care Centre,3460 Aquinas Ave,,Mississauga,ON,L5M 7L2,905-890-1711,https://peelchildcare.cioc.ca/record/CDR0719,School-Based Centre,Yes,8,281031,-8874682.608,5394677.242
497,CC-YMC-007,St. Simon Stock (YMCA),Social Services,Child Care (YMCA),Child Care Centre,6440 Lisgar Dr,,Mississauga,ON,L5N 6X3,647-299-5015,https://peelchildcare.cioc.ca/record/CDR0913,School-Based Centre,Yes,10,297567,-8879961.467,5398421.982
498,CC-YMC-078,St. Sofia (YMCA),Social Services,Child Care (YMCA),Child Care Centre,3540 Havenwood Dr,,Mississauga,ON,L4X 2M9,647-963-9592,https://peelchildcare.cioc.ca/record/CDR0977,School-Based Centre,Yes,3,223236,-8860644.046,5407116.944
499,CC-PLP-148b,St. Stephen (PLASP),Social Services,Child Care (PLASP),Child Care Centre,17 Colonel Bertram Rd,,Brampton,ON,L6Z 4N8,905-890-1711,https://peelchildcare.cioc.ca/record/CDR0930,School-Based Centre,Yes,2,177363,-8885050.933,5423499.724
500,CC-PLP-148a,St. Stephen Early Learning Centre (PLASP),Social Services,Child Care (PLASP),Child Care Centre,17 Colonel Bertram Rd,,Brampton,ON,L6Z 4N8,905-890-1711,https://peelchildcare.cioc.ca/record/CDR0434,School-Based Centre,No,2,,-8885021.109,5423475.442
501,CC-PLP-069,St. Teresa of Avila (PLASP),Social Services,Child Care (PLASP),Child Care Centre,6675 Montevideo Rd,,Mississauga,ON,L5N 4E8,905-890-1711,https://peelchildcare.cioc.ca/record/CDR0703,School-Based Centre,Yes,9,255080,-8877933.955,5402429.922
502,CC-PLP-092,St. Teresa of Calcutta (PLASP),Social Services,Child Care (PLASP),Child Care Centre,1120 Runningbrook Dr,,Mississauga,ON,L4Y 2T2,905-890-1711,https://peelchildcare.cioc.ca/record/CDR0691,School-Based Centre,Yes,3,,-8861513.104,5405739.428
503,CC-PLP-050,St. Therese of the Child Jesus (PLASP),Social Services,Child Care (PLASP),Child Care Centre,6930 Forest Park Dr,,Mississauga,ON,L5N 6X7,905-890-1711,https://peelchildcare.cioc.ca/record/CDR0704,School-Based Centre,Yes,10,280392,-8880813.525,5400622.025
504,CC-PLP-086,St. Thomas More (PLASP),Social Services,Child Care (PLASP),Child Care Centre,3270 Tomken Rd,,Mississauga,ON,L4Y 2Y7,905-890-1711,https://peelchildcare.cioc.ca/record/CDR0674,School-Based Centre,Yes,3,109967,-8861263.237,5404603.103
505,CC-PLP-056,St. Timothy (PLASP),Social Services,Child Care (PLASP),Child Care Centre,2214 Cliff Rd,,Mississauga,ON,L5A 2N9,905-890-1711,https://peelchildcare.cioc.ca/record/CDR0694,School-Based Centre,Yes,7,253306,-8860959.814,5400673.538
506,CC-PLP-123,St. Ursula (PLASP),Social Services,Child Care (PLASP),Child Care Centre,11 Dwellers Rd,,Brampton,ON,L6X 5C1,905-890-1711,https://peelchildcare.cioc.ca/record/CDR0773,School-Based Centre,Yes,5,292794,-8883314.526,5417455.718
507,CC-FDC-020,St. Valentine (Family Day Care),Social Services,Child Care (Family Day),Child Care Centre,5610 Heatherleigh Ave,,Mississauga,ON,L5V 2V9,416-922-3434,https://peelchildcare.cioc.ca/record/CDR0917,School-Based Centre,Yes,6,271616,-8870996.95,5403850.869
508,CC-PLP-103,St. Veronica (PLASP),Social Services,Child Care (PLASP),Child Care Centre,680 Novo Star Dr,,Mississauga,ON,L5W 1C7,905-890-1711,https://peelchildcare.cioc.ca/record/CDR0716,School-Based Centre,Yes,11,227954,-8874093.573,5408546.831
509,CC-PLP-217,St. Vincent de Paul (PLASP),Social Services,Child Care (PLASP),Child Care Centre,665 Willowbank Trail,,Mississauga,ON,L4W 3L6,905-890-1711,https://peelchildcare.cioc.ca/record/CDR0675,School-Based Centre,Yes,3,303930,-8863443.435,5405805.155
510,CC-PLP-218,Stanley Mills (PLASP),Social Services,Child Care (PLASP),Child Care Centre,286 Sunny Meadow Blvd,,Brampton,ON,L6R 3C3,905-890-1711,https://peelchildcare.cioc.ca/record/CDR0791,School-Based Centre,Yes,9,236991,-8878640.527,5428459.724
511,CC-OTH-079,Streetsville Children's Centre - Millcreek,Social Services,Child Care (Other),Child Care Centre,6535 Millcreek Dr,51 52,Mississauga,ON,L5N 2M2,905-813-7318,https://peelchildcare.cioc.ca/record/CDR0526,Community-Based For-Profit Centre,No,9,86867,-8876880.407,5402655.587
512,CC-PLP-104,Sts. Martha and Mary (PLASP),Social Services,Child Care (PLASP),Child Care Centre,1760 Bough Beeches Blvd,,Mississauga,ON,L4W 2B9,905-890-1711,https://peelchildcare.cioc.ca/record/CDR0676,School-Based Centre,Yes,3,113569,-8861265.879,5409303.165
513,CC-PLP-081,Sts. Peter and Paul (PLASP),Social Services,Child Care (PLASP),Child Care Centre,4205 Woodington Dr,,Mississauga,ON,L4Z 1K2,905-890-1711,https://peelchildcare.cioc.ca/record/CDR1048,School-Based Centre,Yes,4,255654,-8864932.234,5404115.444
514,CC-OTH-140,Sunshine Children's Centre,Social Services,Child Care (Other),Child Care Centre,3657 Ponytrail Dr,,Mississauga,ON,L4X 1W5,905-625-6539,https://peelchildcare.cioc.ca/record/CDR0457,Community-Based Non-Profit Centre,No,3,250467,-8859935.065,5408847.813
515,CC-OTH-310,Tall Pines School,Social Services,Child Care (Other),Child Care Centre,8525 Torbram Rd,,Brampton,ON,L6T 5K4,905-458-6770,https://peelchildcare.cioc.ca/record/CDR1020,Community-Based For-Profit Centre,No,8,,-8871418.686,5423055.421
516,CC-PLP-019,Tecumseh (PLASP),Social Services,Child Care (PLASP),Child Care Centre,1480 Chriseden Dr,,Mississauga,ON,L5H 1V4,905-890-1711,https://peelchildcare.cioc.ca/record/CDR0657,School-Based Centre,Yes,2,146969,-8862480.338,5395559.236
517,CC-OTH-020,Tender Years Co-operative School,Social Services,Child Care (Other),Child Care Centre,1444 Dundas Cres,,Mississauga,ON,L5C 1E9,905-828-1104,https://peelchildcare.cioc.ca/record/CDR0472,Community-Based Non-Profit Centre,No,7,,-8866502.419,5395772.226
518,CC-PLP-154,Terry Fox (PLASP),Social Services,Child Care (PLASP),Child Care Centre,95 Richvale Dr N,,Brampton,ON,L6Z 1Y6,905-890-1711,https://peelchildcare.cioc.ca/record/CDR0744,School-Based Centre,Yes,2,290941,-8882454.153,5423951.717
519,CC-OTH-337,Terry Fox Montessori Inc.,Social Services,Child Care (Other),Child Care Centre,1051 Eglinton Ave W,,Mississauga,ON,L5V 2W3,289-997-1312,https://peelchildcare.cioc.ca/record/CDR1614,Community-Based For-Profit Centre,No,6,226146,-8869803.295,5401364.854
520,CC-OTH-348,The Early Childhood Academy Corp. (20 Simona),Social Services,Child Care (Other),Child Care Centre,20 Simona Dr,1,Caledon,ON,L7E 4K1,905-857-6664,https://peelchildcare.cioc.ca/record/CDR1685,Community-Based For-Profit Centre,No,5,427021,-8872846.705,5442915.043
521,CC-OTH-371,The Early Childhood Academy Corp. (22 Simona),Social Services,Child Care (Other),Child Care Centre,22 Simona Dr,6,Caledon,ON,L7E4K1,905-857-6664,https://peel.cioc.ca/record/CDR1685?Number=1,Community-Based For-Profit Centre,No,5,427033,-8872925.688,5442961.492
522,CC-FDC-024,Thorn Lodge (Family Day Care),Social Services,Child Care (Family Day),Child Care Centre,2730 Thorn Lodge Dr,,Mississauga,ON,L5K 1Y6,416-922-3434,https://peelchildcare.cioc.ca/record/CDR1032,School-Based Centre,Yes,2,,-8869286.657,5391694.393
523,CC-PLP-067,Thornwood (PLASP),Social Services,Child Care (PLASP),Child Care Centre,277 Mississauga Valley Blvd,,Mississauga,ON,L5A 1Y6,905-890-1711,https://peelchildcare.cioc.ca/record/CDR0677,School-Based Centre,Yes,4,228271,-8863378.273,5402122.561
524,CC-OTH-053,Tiny Treasure Mississauga Day Care,Social Services,Child Care (Other),Child Care Centre,80 King St W,,Mississauga,ON,L5B 1G9,905-276-2370,https://peelchildcare.cioc.ca/record/CDR0480,Community-Based For-Profit Centre,No,7,240758,-8862773.418,5400149.069
525,CC-OTH-045,Tiny Treasure Montessori School,Social Services,Child Care (Other),Child Care Centre,84 South Service Rd,,Mississauga,ON,L5G 2R9,905-271-2600,https://peelchildcare.cioc.ca/record/CDR0587,Community-Based For-Profit Centre,No,1,,-8860663.634,5399137.052
526,CC-FDC-035,Tony Pontes (Family Day),Social Services,Child Care (Family Day),Child Care Centre,12872 Kennedy Rd,,Caledon,ON,L7C 4C4,416-922-9556 ext 2418,https://peelchildcare.cioc.ca/record/CDR1651,School-Based Centre,Yes,2,444721,-8887397.122,5428277.014
527,CC-OTH-311,Toronto French School,Social Services,Child Care (French),Child Care Centre,1293 Meredith Ave,,Mississauga,ON,L5E 2E6,905-278-7243,https://peelchildcare.cioc.ca/record/CDR1406,Community-Based For-Profit Centre,No,1,,-8857331.352,5400879.407
528,CC-OTH-274,Tot Town Child Care,Social Services,Child Care (Other),Child Care Centre,7205 Copenhagen Rd ,3 4,Mississauga,ON,L5N 2C5,905-858-7852,https://peelchildcare.cioc.ca/record/CDR1012,Community-Based For-Profit Centre,No,9,400161,-8879849.913,5403014.817
529,CC-PLP-169,Treeline (PLASP),Social Services,Child Care (PLASP),Child Care Centre,145 Treeline Blvd,,Brampton,ON,L6P 1E7,905-890-1711,https://peelchildcare.cioc.ca/record/CDR0767,School-Based Centre,Yes,10,319272,-8875821.74,5431200.767
530,CC-PLP-040b,Trelawny (PLASP),Social Services,Child Care (PLASP),Child Care Centre,3420 Trelawny Cir,,Mississauga,ON,L5N 6N6,905-890-1711,https://peelchildcare.cioc.ca/record/CDR0705,School-Based Centre,Yes,10,229815,-8879807.851,5399366.899
531,CC-PLP-040a,Trelawny Early Learning Centre (PLASP),Social Services,Child Care (PLASP),Child Care Centre,3420 Trelawny Cir,,Mississauga,ON,L5N 6N6,905-890-1711,https://peelchildcare.cioc.ca/record/CDR0529,School-Based Centre,No,10,,-8879848.903,5399365.679
532,CC-PLP-244,Tribune (PLASP),Social Services,Child Care (PLASP),Child Care Centre,30 Tribune Dr,,Brampton,ON,L7A 0X5,647-408-2100,https://peelchildcare.cioc.ca/record/CDR1439,School-Based Centre,Yes,6,397281,-8887772.963,5417699.854
533,CC-OTH-215,Village Montessori School,Social Services,Child Care (Other),Child Care Centre,15673 McLaughlin Rd,,Caledon,ON,L7C 1M9,905-838-3886,https://peelchildcare.cioc.ca/record/CAL0075,Community-Based For-Profit Centre,No,1,253868,-8898148.518,5434033.6
534,CC-PLP-046,Vista Heights (PLASP),Social Services,Child Care (PLASP),Child Care Centre,89 Vista Blvd,,Mississauga,ON,L5M 1V8,905-890-1711,https://peelchildcare.cioc.ca/record/CDR0699,School-Based Centre,Yes,11,400216,-8875028.61,5399988.175
535,CC-OTH-300,Walnut Grove (PEAL Centres),Social Services,Child Care (Other),Child Care Centre,10 Pinestaff Rd,,Brampton,ON,L6P 3X8,647-294-2009,https://peelchildcare.cioc.ca/record/CDR0218,School-Based Centre,Yes,8,348515,-8871628.566,5431337.081
536,CC-OTH-347,West Credit Child Care Centre,Social Services,Child Care (Other),Child Care Centre,6325 Montevideo Rd,,Mississauga,ON,L5N 4G7,905-858-3087 ext 209,https://peelchildcare.cioc.ca/record/CDR1475,School-Based Centre,No,9,1239,-8877363.281,5401569.155
537,CC-OTH-009,West Park Day Care,Social Services,Child Care (Other),Child Care Centre,3100 Ridgeway Dr ,45,Mississauga,ON,L5L 5M5,905-820-7211,https://peelchildcare.cioc.ca/record/CDR0494,Community-Based Non-Profit Centre,No,8,,-8871310.34,5391163.017
538,CC-PLP-070,Westacres (PLASP),Social Services,Child Care (PLASP),Child Care Centre,2165 Breezy Brae Dr,,Mississauga,ON,L4Y 1N3,905-890-1711,https://peelchildcare.cioc.ca/record/CDR0678,School-Based Centre,Yes,1,117993,-8859122.916,5402243.596
539,CC-OTH-083,Westbrook Montessori Academy,Social Services,Child Care (Other),Child Care Centre,7227 Copenhagen Rd,,Mississauga,ON,L5N 2C6,905-826-4648,https://peelchildcare.cioc.ca/record/CDR0248,Community-Based For-Profit Centre,No,9,110204,-8879920.307,5402945.03
540,CC-OTH-372,Western Heights Montessori (Tomken),Social Services,Child Care (Other),Child Care Centre,4094 Tomken Rd,,Mississauga,ON,L4W1J5,905-848-8448,https://peel.cioc.ca/record/CDR1761?Number=0,Community-Based For-Profit Centre,No,3,19937,-8862756.598,5406169.63
541,CC-OTH-304,Western Heights Montessori Academy,Social Services,Child Care (Other),Child Care Centre,1261 Southdown Rd,,Mississauga,ON,L5J 2Y9,905-849-4777,,Community-Based For-Profit Centre,No,2,146597,-8865072.182,5390875.465
542,CC-OTH-089,Western Heights Montessori Academy (Millcreek),Social Services,Child Care (Other),Child Care Centre,6920 Millcreek Dr,4,Mississauga,ON,L5N 6C1,905-858-5845,https://peelchildcare.cioc.ca/record/CDR0527,Community-Based For-Profit Centre,Yes,9,240997,-8878353.546,5402932.398
543,CC-PLP-227,Westervelts (PLASP),Social Services,Child Care (PLASP),Child Care Centre,20 Brickyard Way,,Brampton,ON,L6V 4L5,905-890-1711,https://peelchildcare.cioc.ca/record/CDR0746,School-Based Centre,Yes,1,239417,-8881126.384,5419771.375
544,CC-PLP-243,Whaley's Corner Public School (PLASP),Social Services,Child Care (PLASP),Child Care Centre,140 Howard Stewart Rd,,Brampton,ON,L6Y 6B1,1-888-739-4102,https://peelchildcare.cioc.ca/record/CDR1610,School-Based Centre,No,6,421467,-8881865.967,5408496.959
545,CC-PLP-007,White Oaks (PLASP),Social Services,Child Care (PLASP),Child Care Centre,1690 Mazo Cres,,Mississauga,ON,L5J 1Y8,905-890-1711,https://peelchildcare.cioc.ca/record/CDR0658,School-Based Centre,Yes,2,45603,-8864649.441,5392572.842
546,CC-OTH-313,White Oaks Montessori (Clarkson),Social Services,Child Care (Other),Child Care Centre,1338 Clarkson Rd,,Mississauga,ON,L5J 2W5,905-278-4454,https://peelchildcare.cioc.ca/record/CDR0571,Community-Based For-Profit Centre,No,2,42254,-8864755.778,5391896.031
547,CC-OTH-312,White Oaks Montessori (Vanier),Social Services,Child Care (Other),Child Care Centre,1200 Vanier Dr,,Mississauga,ON,L5H 4C7,905-278-4454,https://peelchildcare.cioc.ca/record/CDR0571,Community-Based For-Profit Centre,No,2,,-8863964.108,5394955.457
548,CC-OTH-275,White Pines Montessori Academy,Social Services,Child Care (Other),Child Care Centre,3945 Doug Leavens Blvd,,Mississauga,ON,L5N 0A5,905-824-8700,https://peelchildcare.cioc.ca/record/CDR1015,Community-Based For-Profit Centre,No,10,,-8880526.946,5398701.53
549,CC-PLP-075,Whitehorn (PLASP),Social Services,Child Care (PLASP),Child Care Centre,5785 Whitehorn Ave,,Mississauga,ON,L5V 2A9,905-890-1711,https://peelchildcare.cioc.ca/record/CDR0714,School-Based Centre,Yes,6,275702,-8872441.792,5403144.864
550,CC-YMC-069,Williamsport (YMCA),Social Services,Child Care (YMCA),Child Care Centre,1320 Williamsport Dr,,Mississauga,ON,L4X 2T6,905-625-5624,https://peelchildcare.cioc.ca/record/CDR0445,Community-Based Non-Profit Centre,No,3,,-8860654.707,5406906.51
551,CC-OTH-328,Willow Tree Montessori,Social Services,Child Care (Other),Child Care Centre,274 Queen St S,,Mississauga,ON,L5M 1L8,647-787-8274,https://peelchildcare.cioc.ca/record/CDR1483,Community-Based For-Profit Centre,No,11,86366,-8873393.864,5400584.916
552,CC-FDC-002,Willow Way (Family Day Care),Social Services,Child Care (Family Day),Child Care Centre,1715 Willow Way,,Mississauga,ON,L5M 3W5,416-922-3434,https://peelchildcare.cioc.ca/record/CDR0537,School-Based Centre,Yes,6,,-8873262.015,5401857.925
553,CC-OTH-326,Willowbrae Academy Brampton,Social Services,Child Care (Other),Child Care Centre,10651 Chinguacousy Rd,,Brampton,ON,L7A 0N5,647-332-2688,https://peelchildcare.cioc.ca/record/CDR1464,Community-Based For-Profit Centre,No,6,315315,-8885624.506,5419026.515
554,CC-PLP-118,Worthington (PLASP),Social Services,Child Care (PLASP),Child Care Centre,71 Worthington Ave,,Brampton,ON,L7A 1N9,905-890-1711,https://peelchildcare.cioc.ca/record/CDR0771,School-Based Centre,Yes,6,276742,-8885363.341,5416740.649
555,CC-OTH-010,Young Minds Montessori Preschool,Social Services,Child Care (Other),Child Care Centre,1744 Lakeshore Rd W,,Mississauga,ON,L5J 4N8,905-403-0403,https://peelchildcare.cioc.ca/record/CDR0566,Community-Based For-Profit Centre,No,2,418038,-8863568.678,5390989.606
556,CC-OTH-288,Yunaland,Social Services,Child Care (Other),Child Care Centre,10747 Heart Lake Rd,Lower Level,Brampton,ON,L6Z 0B7,647-494-3253,https://peelchildcare.cioc.ca/record/CDR1347,Community-Based For-Profit Centre,No,2,88173,-8881619.197,5425300.086
